name,address,latitude,longitude
AGNIESZKA KUŹMA-FILIPEK Lawenda Public Relations,Aleja Dzieci Polskich 67C,52.2109777,21.20401777496825
SAR PRZEDSIĘBIORSTWO BOGUSŁAW WICIK,KRUSZYŃSKA 37,52.2336255,20.918111370871266
"Piotr Szczepaniak PRZEDSIĘBIORSTWO INŻYNIERYJNO-BUDOWLANO-MONTAŻOWE ""BUDOMONT""",Łączyny 2/52,52.15910645,21.001915619588523
KANCELARIA ADWOKACKO-RADCOWSKA TUZINEK I WPÓLNICY S.C. PAWEŁ TUZINEK,Warsztatowa 11C,52.1915338,21.185887962827735
ECON-NT Paweł Kalbarczyk,Kąkolowa 81A,52.1828545,21.192986429075546
AS-TAX Arkadiusz Strzelczak,Rajmunda 9,52.2854026,21.057754838869847
""" O włos..."" AGNIESZKA SUCHECKA",al. Aleja Wyzwolenia 11,52.219418149999996,21.019965640714908
"Godowski Jacek, BELU",Bruzdowa 19a,52.14661935,21.136099374736567
"1) AKO ALEKSANDER KOSZOWSKI
2) KOSZOwski s.c. ALEKSANDER KOSZOWSKI",al. Aleja Wojska Polskiego 9,52.26372255,20.993854008308855
MUROWANIE GROBÓW ZAJĄC TERESA,Palisadowa 28,52.2967221,20.902269344263146
Beauty Lanka Weronika Słowik,STANISŁAWA CHUDOBY 93A,52.34086085,21.06535982872549
ANTON DREKA,ul. Nowogrodzka 31/414,52.2280192,21.0083201
J. W. LOVEAUTO JAN WOJDA,ŻOŁNY 48C,52.138491599999995,21.021218512937594
Stalownia Marta Stolarczyk,pl. Plac Czerwca 1976 Roku 9,52.201434750000004,20.891846118716018
K & T - VĂN THƯỞNG TRẦN,al. Dzieci Polskich 13,52.207525450000006,21.19046566371951
"""GABEA"" BEATA GAJEWSKA",Albatrosów 10,52.148866,21.019343321941264
Kancelaria Adwokacka Piotr Królak,Cybisa 36,52.152677999999995,21.021613351070265
SALVUM MEDYCYNA RATUNKOWA DAMIAN KOWALCZYK,KASJOPEI 31,52.28248495,20.905155582015723
Izabela Nowak-Grodowska Kancelaria Doradcy Podatkowego,Poprawna 27M,52.21152775,21.11426463454122
"Hausner Stanisław ""Maszyny spożywcze"" ; Stanisław Hausner Maszyny spożywcze - wspólnik spółki cywilnej",Dusznicka 82,52.16813905,21.21951856400969
KAROLINA KRUSZYŃSKA-KUBIAK - wspólnik spółki cywilnej I-sza Żoliborska Przychodnia Weterynaryjna S.C.,ul. Gdańska 2,52.2724602,20.9740965
AUTO DYMEK DANIEL DYMKOWSKI,BORKÓW 39A,52.19086585,21.148926595266353
Euro Pol Travel Iwona Jędrzejewska,Wylotowa 7,52.21539945,21.147552125390852
"Igor Szczechura ""SIMAUTO""",Wierchów 9,52.21999325,21.147743131395835
"MARIA SKUTELA BIURO RACHUNKOWE ""SALDO""",Smugowa 55,52.325444000000005,21.01150956712847
JOANNA KOŁODZIEJSKA HYVA,JANA OLBRACHTA 23B/118,52.232334249999994,20.93335966187992
ALEKSANDRA KONOPA Lek. Aleksandra Konopa,Czarnołęcka 2,52.2078178,21.188948646182723
M&S Oleksandr Furs,ul. Ostródzka 130,52.32732405,21.06674792469463
Sylwester Rypina,ul. Młynarska 42/115,52.2375543,20.9719895
PAULINA NOWAKOWSKA Undermybow,Klaudyny 28C,52.2833816,20.97220460383266
Dorota BRUDKIEWICZ-MACIEJEWSKA,Kasjopei 75,52.2810504,20.90567755722634
"Jacek ZBRZEŹNIAK 1.PRZEDSIĘBIORSTWO PRODUKCYJNO-USŁUGOWO-HANDLOWE ""MOTGOS""- WSPÓLNIK SPÓŁKI CYWILNEJ; 2.""ZBRZEŹNIAK"" JACEK ZBRZEŹNIAK",Rydygiera 9a,52.2594749,20.979371194678606
Przedsiębiorstwo Handlowe Usługowe MARIO TOURNE,ul. Czerniakowska 71/508,52.2026463,21.0492022
Przemysław Dąbrowski,Karska 5,52.28410905,20.951321498390335
Argan cream oil Zulfiqar Ali Nawab,al. Jerozolimskie 85/21,52.227172,21.0004447
DPT Mariusz Lewandowski,Płochocińska 167a,52.35608825,21.026940427234308
Consultnet Zbigniew Gołębiewski,Poprawna 98,52.217857249999994,21.11251619449636
Maja Olędzka Firma Usługowa,Myszołowa 4,52.169106400000004,21.175437674708032
ZOFIA WALICKA Zofia z lasu,CZYSTA 3,52.11855305,21.012441973349567
Monika Kurzep,BOGUMIŃSKA 7,52.28139575,21.069138497144046
Rebel Mind Iga Kowalska,pl. Wilsona 4/40,52.2688858,20.986367651734106
KWIACIARNIA „KROKUSIK” u KASI ALEKSANDER ABRAMCZUK,ul. Radzymińska 202,52.2555602,21.0496379
PAWEŁ TRĘBIŃSKI,Nowolipie 10,52.244137699999996,20.994164755177103
Broker-finance Robert Buszewski,WYCZÓŁKI 99,52.1570248,20.995888911672672
Gwarancje24 Liliana Zielińska,Trakt Lubelski 300E/25,52.210206150000005,21.136392572126173
MECHANIX ZDZISŁAW WRÓBEL,ŁODYGOWA 44,52.28589825,21.091844845514494
TOMASZ MEUŚ NO PROBLEM,Karnicka 18,52.34084105,20.98024248043407
INDUE CONSULTING KRZYSZTOF KOLASA,PEŁCZYŃSKIEGO 14A/182,52.24305805,20.907836402610627
Anna Łakomska,NOWY ŚWIAT 33/13,52.2335289,21.0186592
BŁAŻEJ KOWALCZYK,BOCZAŃSKA 6,52.3445712,20.971212364601893
INDYWIDUALNA SPECJALISTYCZNA PRAKTYKA LEKARSKA MAŁGORZATA FRYDRYCH-DALECKA,Zawadowskiego 4,52.16461355,21.019446518188204
kancelaria adwokacka OLGA RENTFLEJSZ,MELOMANÓW 6,52.2062576,21.05362100713675
LAN master Piotr Seredyński,Jana Bytnara „Rudego” 19,52.19227515,21.006981783380553
TRANSPORT CIĘŻAROWY SMOLAGA PIOTR,Rumiana 2,52.168930849999995,21.081816304289575
Maciej Krzyżowski,CZŁUCHOWSKA 19,52.229077649999994,20.91700455
STANISŁAW STACHOWICZ STAMARZ Stanisław Stachowicz,Bohaterewicza 5/7/105,52.23016925,21.08991769147587
XKloud Consulting Bogdan Klekot,Sielankowa 25,52.179413100000005,21.178496949002103
TARGET PROJECTS Brittain David,Kruczkowskiego 8,52.234481,21.0310854
DAKA SKUP I SPRZEDAŻ ZŁOMU DOROTA KLECZYŃSKA,Strażacka 39B,52.2594706,21.123688609074016
"""EDMA"" ROGUSKI ZBIGNIEW",PORANNEJ BRYZY 24,52.2898008,21.055429495374646
Tomasz Sobota,Armii Krajowej 62,52.2499287,21.230208799907576
AGNIESZKA CZARNECKA-ŚWIERKOT-GABINET LAKARSKI,ZEUSA 27,52.2483235,20.91008776355707
BEATA ORACZ MAJSTERKOWICZ S.C.,MYŚLIBORSKA 21,52.301591450000004,20.978124859805003
Chaos Brothers Piotr Tomczyk,ul. Woronicza 31/102,52.189152,21.0256962
PRZEDSIĘBIORSTWO USŁUGOWO-HANDLOWE AGATA SUBDA,Arkuszowa 8,52.2837118,20.9115917
GEOPROFIT Wojciech Dziemianowicz,Wiązana 26F,52.2026522,21.144500043887245
Game Development Mateusz Zieliński,AGRARNA 16,52.2511195,21.12711659860896
Krzysztof Gocałek Consulting,ul. Inflancka 15/137,52.2543092,20.9886383
"BARBARA STANIEWICZ-BŁAWAT AGENCJA HANDLOWA ""OMEGA""",Lawendy 1,52.13201625,21.10832788063471
STB Dariusz Kaca,pl. Plac Czerwca 1976 Roku 7,52.2015039,20.892251931059434
GRAŻYNA MAŚLAK PAWILON HANDLOWY,Globusowa 8,52.20769795,20.916172351175206
ROMUALD RADZEWICZ GENUINE MAX,BURAKOWSKA 12,52.2548397,20.9794602
E-SYSTEM TOMASZ FURMAN,BRZEZIŃSKA 19L,52.35587485,20.976524710369773
KANCELARIA PRAWNICZA RADCA PRAWNY KRZYSZTOF ŚLIWKA,Wąchocka 1N,52.2276641,21.05574017025465
"ANNA HRYNIEWICZ ""Kancelaria Adwokacka Adw. Anna Hryniewicz""",Hufcowa 11,52.1812702,21.20810639978501
"""ADINVEST Andrzej Drożdż""",Jodłowa 10,52.21824835,21.225043832591936
Tomasz Tonderys Logistics,ul. Żurawia 6/12,52.2289874,21.0178122
Małgorzata Stankowska,Zamieniecka 90,52.2415873,21.1018836
WILADOM KRYSTYNA ORZYŃSKA,SYTA 50,52.1587025,21.12030104049774
Krzysztof Wałaszewski,Pustułeczki 9D,52.1430126,21.02991491506294
Kamil Krzywkowski,derkaczy 62,52.16348975,21.206531769579314
"""WALM"" F.H.U Renata Walkowicz wspólnik spółki cywilnej",Warszawska 4A,52.2441734,21.17969841331404
"""M.K. SZUSTER"" Juliusz Krzysztof Szuster",al. Jerzego Waszyngtona 38/40,52.2397013,21.06099054619565
GRZEGORZ WNOROWSKI WMW ARCHITEKCI,Poczty Gdańskiej 45,52.196819500000004,20.897443431954883
"""LASKAR"" KARASZEWSKI PIOTR",Andrutowa 13,52.12300355,21.100231993558943
MAGDALENA BADURA M.A.G. FiLM,Węglarska 44,52.2103847,21.147547325776152
Felicia art studio DOROTA GORZKOWSKA,Kajakowa 7,52.12958385,21.023174951498813
JERZY KURKUS GEORGE II,Miłkowskiego 1D,52.219671149999996,21.1378128865858
"NATALIA RUMIANOWSKA KAWIARNIA ""FRAZA""",MOKOTOWSKA 16/20,52.220939650000005,21.01909259793078
"Stefania FROST AGENCJA HANDLOWO-USLUGOWA ""FROST""",Emilii Plater 20/33,52.2253928,21.0077145
KWIATUCH.PL Piotr Skorupko,"al. Aleja gen. Antoniego Chruściela ""Montera"" 72",52.2617362,21.165562620238095
Zdzisław Pieniążek,Małego Rycerza 27,52.3341929,21.04024988023299
Artur Jończyk KANCELARIA RADCY PRAWNEGO ARTUR JOŃCZYK,Ruczaj 4B,52.133226,21.130702264557783
Mariusz Prusaczyk YELOW CAB,Syrokomli 7/13/243,52.28489605,21.024367402997648
OLSTAR BARBARA OLSZEWSKA wspólnik spółki cywilnej,Jerozolimskie 60,52.2254619,20.9897637
MICHAŁ KALISZ Dolomity.PL,BRYGADZISTÓW 3A,52.22162635,20.91310994848655
Code'n'Roll Damian Patoka,Rembertowska 19,52.2440661,21.182623420729314
12 WHEELS TRANSPORT ALEKSANDER PLASKOTA,Trakt Napoleoński 38,52.190827299999995,21.200090184668248
EWA DUDA EDX,Leszczynowa 14A,52.30547995,20.983153822603207
PAWEŁ KARPIŃSKI MATEO DESIGN,Fletniowa 2,52.3390963,20.97885868933225
TRANSWOZ JAROSŁAW WOŹNIAK WSPÓLNIK SPÓŁKI CYWILNEJ,Zdziarska 62,52.340831,21.05819633989607
JANUSZ FACON FITCON,Kępa Tarchomińska 6H/1,52.34576295,20.929216443587954
"LECH GRUNWALD PRZEDSIĘBIORSTWO HANDLOWO USŁUGOWE ""GRUNWALD""",BAŻANCIA 34,52.108612300000004,21.027593545468537
GRZEGORZ WĘGŁOWSKI,Przytulna 8A,52.35610935,20.983047025477045
"""GABINET LEKARSKI - Małgorzata Gorzkowska-Paczwa""",Sęczkowa 16D,52.20879015,21.111805574142004
WAR - SER II Adam Dzięcioł,Chodakowska 53/57,52.2530958,21.064457065529737
robert twarowski com,Podkowy 120/2,52.1717276,21.24624065064249
ELWIRA PALUCHOWSKA BETIVA Gabinet dermatologiczny,Garncarska 45,52.1799543,21.189322405428975
"IMpact, Edyta Karczewska",Ryżowa 24L,52.1970688,20.910945346195646
Jakub Podgajniak,Dalibora 14,52.24780105,20.943167499714882
MARCIN MARCINIUK SCOTBIZ,Borków 51A,52.19126355,21.151861823500166
DAGO DISPLAY Daniel Dąbrowski,Gwarków 41,52.26376325,21.120330519930896
PIK FAMILY PAULINA DĄBROWSKA,Szynowa 29,52.330529549999994,20.986117290471878
"ZBIGNIEW SEREMAK YES-SER S.C. Zbigniew Seremak; ACTIVE PARTNERS S.C. Zbigniew Seremak; IESER Zbigniew Seremak - Nazwa skrócona: YES-SER S.C.; ACTIVE PARTNERS S.C., IESER",Stągiewna 2A,52.33418955,20.966595350954606
GRZEGORZ CABAŃSKI,ul. Lucerny 109,52.2128851,21.1380761
"Z.P. ""OjA"" OSTROWSKI LECH",Sporna 2F,52.12397745,21.015187344067805
Kancelaria Adwokacka - Adwokat Mateusz Gronau,pl. Plac marsz. Józefa Piłsudskiego 1,52.2420984,21.0127655
MACIEJ CHROSTOWSKI MANITOU Maciej Chrostowski,Poleczki 20,52.1546438,21.011080615104355
Konrad Rakowski FORMY.WORK,ul. Belgijska 5/14,52.2027736,21.0258432
MICHAŁ SKOCZEŃ VIRTUAL PRODUCTION,NAPOLEONA BONAPARTE 47b,52.167964850000004,21.235117982843143
Mateusz Ośka Auto Mati,Dzwonkowa 40,52.1735264,20.925607569295437
PRZEMYSŁAW TRZECIECKI,MRĄGOWSKA 20G,52.170732599999994,21.168161916929783
Alfa Joanna Danielewska,Mrągowska 27k,52.170665299999996,21.16295362438578
Bożena Świderska,Kadrowa 38,52.26730105,21.165811861072065
Kacper Wojtaszewski - ACONIC,OLEŃKI 11,52.336075449999996,21.037288255377277
MAREK TOPORSKI,Śląska 26A,52.20540015,20.920702865306115
"Jerzy Stężycki TAWERNA ""FREGATA""",Bokserska 21,52.16754935,21.00564188734159
PIACH I PUDER MONIKA HARWAS-DRZYMULSKA,PRZASNYSKA 11A/206,52.25990725,20.966906638129387
Artur Kozyrski,ul. Puławska 166/172/66,52.1851211,21.0238316
"Wojciech DYRDA ""STRZECHA""  WOJCIECH DYRDA",Skarbka z Gór 51A,52.320434500000005,21.05635446532932
TOMASZ GAWAŁKIEWICZ,Kolendrowa 48,52.2158929,21.24927493289512
USŁUGI LEKARSKIE KRZYSZTOF KOMUDA,pl. Konfederacji 54,52.279995549999995,20.947201816791136
KRYSTYNA OWCZARSKA P.M.B. WARSZAWA,CIEPLARNIANA 23A,52.24980875,20.872446486569515
"KANCELARIA RADCY PRAWNEGO MARCIN KRZEMIŃSKI, KANCELARIA PRAWA KANONICZNEGO KANONISTA MARCIN KRZEMIŃSKI",al. Jana Chrystiana Szucha 8,52.21476805,21.022732920747895
"PIOTR NOWAKOWSKI REBUNO, DRUK",Trakt Lubelski 345B,52.2206321,21.134171797702198
KSIĄŻKI W GŁOWACH Katarzyna Szymajda,Prometeusza 3,52.248754399999996,20.90956061934429
JARZYNKA  - JOANNA ZAWADZKA wspólnik spółki cywilnej,Grochowska 289,52.24597565,21.068927191484555
MAŁGORZATA NIEDŹWIECKA-MAŁECKA,al. Aleja Wojska Polskiego 2,52.264777050000006,20.99449596593258
JOLANTA ŁUCZAK,Szeligowska 26A,52.22598705,20.891473084468018
Sławomir Madej,ul. Grzybowska 16/22/1111,52.2368144,20.9994462
DAGAZ Grzegorz Kowalczyk,ul. Pańska 65/130,52.2312121,20.9923129
DANIEL CHACHASHVILI S.L.R&D.C.&#13;&#10;IMPORT-EXPORT,Trakt Lubelski 50A,52.17908045,21.150993167688142
Matprogram Piotr Sadowski,al. Aleja Stanów Zjednoczonych 32/350,52.2328158,21.076420568525176
"MARTA SZYL I nazwa ""MATUSIA""; II nazwa ""INTERNETOWA KSIĘGARNIA INWESTYCYJNA""",al. Dzieci Polskich 10,52.206842249999994,21.187680582921388
Marcin KUBICKI ALMAR WOOD & HOUSE S.C.,Wólczyńska 13,52.277957549999996,20.936691761333407
"HALINA GRUBSKA PRZEDSIĘBIORSTWO HANDLOWO USŁUGOWE ""HAMAR""",Al. Solidarności 95/99,52.24290155,20.99750272623465
OREKO MAREK KUNA,Stanisława Augusta 75/44,52.2446361,21.0640937
KIERUNEK ZDROWIE KATARZYNA HOROSZ-PIOTROWSKA ,BITWY WARSZAWSKIEJ 1920 R. 10/127,52.2126221,20.9731209
Tadeusz Jaworski OŚRODEK SZKOLENIA AUTO-TOP BIS,Odlewnicza 7,52.30587065,21.016644436138098
FPHU MW NIERUCHOMOŚCI MAŁGORZATA WIERZBICKA,al. Generała Antoniego Chruściela (Montera) 71A,52.26358145,21.16740489662162
HENRYK KLIMKIEWICZ TOR CONSULTING,Brzeziny 47,52.33137985,21.046414302922688
Top Quality Grzegorz Czajkowski,Kruszwicka 11,52.18093985,21.18148271329308
MICHAŁ KRAWCZYK,Trzcinowa 27,52.2120008,20.9174365
GASTROPLANETA Karina Kuć,Trakt Brzeski 58,52.222877100000005,21.2324257
INDYWIDUALNA SPECJALISTYCZNA PRAKTYKA LEKARSKA JAROSŁAW POLESZCZUK,Przyrodnicza 20,52.327564699999996,21.053492168589116
ZuZuLand Joanna Popławska,JULIANA URSYNA NIEMCEWICZA 20,52.24644015,21.213022672010453
WOJCIECH STAŃCZUK ZAKŁAD INSTALACJI SANITARNYCH I ELEKTROMECHANIKI,Kanonierska 24,52.268355850000006,21.160769296874996
"""LAMA""-MARCIN J.STRUZIK",Niska 5,52.251520049999996,20.989575981507272
BETFLIX Łukasz Kurek,GRZYBOWSKA 80/82/700,52.2337655,20.982923
"SKLEP SPOŻYWCZO-PRZEMYSŁOWY ""KLEMENTYNKA"" WIOLETTA HAFTOWSKA",al. Aleja Władysława Reymonta 10C,52.2730263,20.935711180555554
Lech Majewski STUDIO,Ciechocińska 8B,52.17933345,21.0684262150112
ŻURAWSKI ANDRZEJ LMC,Chudoby 65F,52.33741285,21.06467431369458
BAJER TOMASZ MAJER,Przylaszczkowa 12b,52.153950550000005,21.190284276764125
PETER WITKOWSKI PACK-TREND,Juranda ze Spychowa 44A,52.31717725,21.0444363258474
ELŻBIETA PYRŻA PRAKTYKA LEKARSKA STOMATOLOGICZNA,ul. Szczęśliwicka 54/608,52.2096896,20.9647641
Exproc Robert Bonat,Trakt Lubelski 275P,52.213320800000005,21.13026620869038
MMGROUP MACIEJ MIECH,ul. al. Solidarności 68/121,52.2425578,20.9936557
Maciej Postolski PRAKTYKA LEKARSKA,Storczykowa 36A,52.231073949999995,21.155034101122908
KLM  MARCIN BOGUT,Trakt Lubelski 254,52.2038473,21.13450621154721
PHARMACON NICOLAS OBEID,Mirska 3,52.245398,21.130733138938176
ZBIGNIEW PEŁDA USŁUGI GEODEZYJNE,LWA 21,52.2887588,21.058023382589276
PPHUIW TEMPO Krzysztof Mildner,Marysińska 28B,52.2228614,21.155466905822784
"Katarzyna Wyszyńska ""F.U. VEGA OUTSOURCING SERVICE"" WYSZYŃSKA KATARZYNA",Macedońska 13,52.1747759,21.04771716155029
DARKPOL - Dariusz Tarasiewicz,ul. Towarowa 35/112,52.2344247,20.981028
SASMA EUROPE Sebastian Błażkiewicz,Witkiewicza 14,52.280156500000004,21.014104266979786
TRANSMIK Artur Mikołajczuk,Koronacyjna 27,52.200883149999996,20.861208456570214
VERBUM AGNIESZKA JUZWA-OGIŃSKA,BOCZAŃSKA 10A,52.34526365,20.97220400571065
RIEN KSAWERY MOŚCICKI,KAJKI 106A,52.224429650000005,21.162932853551915
"EURUS CAPITAL, YVES MOUSSON-LESTANG",Filtrowa 50,52.21904775,21.00021854502959
EXEL-TERM MAREK BIELIŃSKI,Minerska 53,52.23169145,21.13504734377359
"Grzegorz Białkowski BUFET STUDENCKI ""KACPEREK""",Grochowska 284,52.2465981,21.066975388978356
WŁADYSŁAW WĄSOWICZ METAL - ART,Mirska 5,52.245484649999995,21.131305609328844
pawlowicz.net Pawłowicz Roman,Dworcowa 10,52.2049885,21.171240502753623
SOFTPROPERTY JACEK PŁYWACZ,ZBYSZKA Z BOGDAŃCA 10C,52.3093351,21.037055227885872
"1.Wiesław Dębowski ,,SPEC- Gips,,Usługi ogólno-budowalne """,Sztabowa 12,52.2423633,21.118585426615553
"KAZIMIERZ PILIPCZUK ""MOBILEK""",STAROZACISZAŃSKA 8B,52.2824392,21.068144146291353
ROBERT WOJTKOWSKI USŁUGI INFORMATYCZNE,UGOREK 9,52.343697399999996,20.945979251928005
Marek Silewicz,Dzięcioła 9B,52.16774575,21.161524232891246
NOWAKOWSKI KONRAD SZKOLENIA I DORADZTWO,POWSTAŃCÓW ŚLĄSKICH 89C/122,52.243723,20.909753622621356
Brightna Aleksandra Kneustlier-Hanusz,Wszemirowska 34,52.2063224,20.89548981968568
Piemonte PR Maria Podgórska,Osiedle Przyjaźń 117,52.2360707,20.916394398987734
"Sebastian Rakowski ""Raczek""",WOJCIECHA KORFANTEGO 16,52.26236835,20.91455812018394
ARTUR HYPŚ MARKET,Cieslewskich 25b,52.3300454,21.026348544806297
Krzysztof Roland Bobkiewicz DORADCY FINANSOWI I TURYSTYCZNI,Kuligowska 21B,52.1847458,21.135718701214806
TOMASZ BUDZIK SYSTEM 10 000,Ludwinowska 51B,52.1336484,21.006519455523787
ADAM ŁAWNIK,Drzeworytników 91,52.22645435,20.90610740044872
KANCELARIA RADCY PRAWNEGO KRYSTYNA SZCZEPANOWSKA-KOZŁOWSKA,Goraszewska 10B,52.1886961,21.068259086779264
AAB STUDIO AGNIESZKA ALEKSIEJUK FIRMA HANDLOWO- USŁUGOWA - Nazwa skrócona: AAB STUDIO,Malinowskiego 5,52.151256700000005,21.037547329016142
Bartłomiej Choroś,Broniewskiego 95/240,52.27173725,20.940944234501895
"""ROKER S.C"" MARIOLA WOJCIECHOWSKA  wspólnik spółki cywilnej",Znanieckiego 9,52.22586795,21.105200286844244
Katarzyna Michalska KM - INVEST,Królewicza Jakuba 38A,52.173367999999996,21.075580723140497
Nautix.pl Olga Jelonek,Borowiecka 59,52.18167645,21.15778392754926
Tomasz RYNKIEWICZ CELTIS Tomasz Rynkiewicz,Św. Wincentego 112/250,52.28982465,21.052458871275018
Przemysław Badowski BADY-CARS,Korzenna 17A,52.1933291,21.092130896724427
DARIUSZ DĘBKOWSKI D.D. ServiceS,KSIĘCIA ZIEMOWITA 55/57,52.2697466,21.0764592
EWA KOLMUS FIRMA,Grochowska 16,52.237403549999996,21.12087101001323
Aldona Raziuk WIRTUS  PLUS  ALDONA  RAZIUK,Fabryczna 8A,52.219648899999996,21.230036487366938
TWÓRZ JUŻ MARIKA STARZEŃSKA,ul. Radosna 11,52.17347205,21.067905931389063
JACEK WACHOWICZ J.W. REM-BUD,Pińska 29,52.273333550000004,21.03789590721421
Barbara Wiszniewska,ODOLAŃSKA 28,52.20085625,21.016294174620835
Concept4 Anna Korwin-Mikke,Junaków 8a,52.1846593,21.17876813685253
AJL MOTO Wiesław Bernat,Cienista 59,52.210884899999996,21.2383271642652
HENRYK SIKORSKI NAPRAWA SAMOCHODÓW JAPOŃSKICH,Rezedowa 22,52.23757055,21.13969618099833
GABINET STOMATOLOGICZNY AGNIESZKA FRELEK,IV Poprzeczna 11,52.22096065,21.158370990462146
"Grzegorz Buch ""GRZEGORZ BUCH""",Motylkowa 1f,52.19650335,21.15035808902224
Studio Urody Karolina Skiba,Olszynki Grochowskiej 2E,52.237851649999996,21.12073147283356
CCM Construction & Claims Management MICHAŁ LEMPKOWSKI,ul. Krochmalna 54/105,52.2362927,20.9899296
"""MAKRO S.C."" Robert Babarowski wspólnik spółki cywilnej",Kudowska 31A,52.16240655,21.22592555695461
Encore - Nadia Ostrowska,Sulmierzycka 6,52.19240745,20.971967450750093
Anita Budna Nieruchomości,KS. PIOTRA SKARGI 58a/123,52.27033755,21.046236310521778
"Ośko Andrzej wspólnik S.C. ""JOLANTA I ANDRZEJ OŚKO S.C.""",PAROWCOWA 37A,52.21263225,20.915144988427457
Hanna Wenda Real Estate,"al. gen. Antoniego Chruściela ""Montera"" 88A",52.263075099999995,21.167917013136655
"TeKa Tomasz Kownacki, wspólnik spółki cywilnej POLIOFFICE",Strumykowa 59a,52.333832599999994,20.942960752388437
U BRACII NORBERT STEFAŃSKI,Aleja Niepodległości 46/50/187,52.1900002,21.0176198
CANFAX MAREK KRYSZKIEWICZ,Sygietyńskiego 5,52.23980645,21.077919421734073
KJN SERVICES KAMIL NASIŁOWSKI,Jeziorowa 67/M,52.199059250000005,21.127434308145332
KONRAD ANTOSIK,Łochowska 1/29,52.25955545,21.05423933235788
BŁAŻEJ MITKOWSKI AUTO-SERVICE,Poetów 29,52.3430179,20.9505586985143
"Grzegorz Regulski Przedsiębiorstwo Produkcyjno Usługowo Handlowe ""PIONIER""",Biskupia 12,52.237600099999995,21.122428705737704
KATARZYNA CZUBASZEK,LILIOWA 29M,52.162458349999994,21.186412538746758
"Teresa Kaczmarczyk LABORATORIUM BADAŃ ŚRODOWISKA PRACY ""SONOLUX"" mgr Teresa KACZMARCZYK",Motylkowa 65D,52.20003905,21.150065346110587
Noe Michejda,SŁONKI 9,52.12228225,21.022486674877747
JANUSZ GRZEGORZ MAŃK,Szamocin 12,52.3511412,21.016732860443035
KATARZYNA RAINKA FOTO-STUDIO,SIERPECKA 6,52.2698538,20.9787227
"F.H.U. DOMAR, BOGUSŁAW GAIŃSKI nazwa skrócona: FHU DOMAR",Wełniana 47D,52.131261800000004,21.048908458955225
"PERFEKT PROJEKT S.C. ROBERT JAKACKI, JAROSŁAW KAMIŃSKI",RZĘDZIŃSKA 5,52.2302727,20.920792481649826
Katarzyna Janik,Ostra 8,52.1754664,21.082351755138014
POSITIVON GRZEGORZ FRONCZAK,ul. Białostocka 11/101,52.2536278,21.0364693
Kancelaria Radcy Prawnego Milena Żywiecka,Zegarynki 25a,52.3384752,20.996424082512853
KANCELARIA RADCY PRAWNEGO MGR TADEUSZ POPŁONKOWSKI,os. Osiedle Przyjaźń 101,52.2363621,20.914892397814356
"""Wiesław Olechwierowicz""",Bystrzycka 22,52.1576019,21.2187981785562
DOROTA BAKUŁA,KRUSZYŃSKA 1,52.229746250000005,20.91795815876925
MARTA TKACZYK,Kadetów 66,52.21429175,21.129581677041227
JOLANTA SPADARZEWSKA BOMBONIERKA - wspólnik spółki cywilnej,Krępowieckiego 11B,52.238696950000005,20.9354443
MICHAŁ WIERNICKI VIKING s.c. wspólnik spółki cywilnej,Kostrzyńska 40a,52.18982655,21.078383215341532
Janusz Kubicki KUBIS CONSTRUCTION,ul. Dzielna 64/130,52.245925,20.9911782
Ewelina Łapczyńska,Radecka 3,52.30784895,20.92755522100783
Salon Fryzjerski Agnieszka Włodarczyk,Bukowskiego 7,52.2297774,21.090524562021297
Andrzej Piwowarski NTG - NOWE TECHNOLOGIE GAZOWE - NEW GAS TECHNOLOGIES-NOUVELLES TECHNOLOGIES GAZIERES - A. PIWOWARSKI,Karpacka 12,52.23378965,21.15145538364796
JACEK PACULA MITGASS EXPRES,AFRODYTY 1,52.2488583,20.90776987970279
"DARIUSZ DURANC ""Auto-Duranc"" Duranc Dariusz",Łodygowa 60,52.28575255,21.09524844668988
Tadeusz Dorywalski INDYWIDUALNA  SPECJALISTYCZNA  PRAKTYKA  LEKARSKA  TADEUSZ  ST. DORYWALSKI,Cienista 71,52.210019700000004,21.238223886633826
PAWEŁ ŻRAŁEK CAR SERWIS,OSTRÓDZKA 111,52.31622885,21.05004680610671
JOANNA KĄKOL,Mirska 16,52.2454252,21.132705994806095
MARCIN CIESIELSKI MCM,Boglarczyków 24/c,52.133760699999996,21.057552302
Małgorzata Kaczyńska,Mrówcza 45B,52.1900555,21.16842413446453
Marketing Analytics Boutique Karol Dulęba,ul. Nalewki 5/122,52.2498228,20.9962128
WŁODZIMIERZ CHILIŃSKI,Liczydło 1,52.3133531,20.98070291788922
Jacek Mikulski Zarządzanie Nieruchomościami,Długa 70A,52.2517828,21.19864210130965
BWM DOM Konrad Rutkowski,Objazdowa 14,52.225072749999995,21.212187762636617
Paweł Dytry KANCELARIA RADCY PRAWNEGO PAWEŁ DYTRY,Tęczowa 4,52.24991355,21.215696138370244
MG BAU - Usługi Budowlane Dariusz Gralewski,Kwidzyńska 37,52.212328299999996,21.1545743091692
HANDEL ARTYKUŁAMI PRZEMYSŁOWYMI I USŁUGI KRAWIECKIE AGNIESZKA BUJNOWSKA-MUCHA,Ostródzka 58G,52.30839215,21.05442677799654
Sprzedaż detaliczna artykułów spożywczych i warzywnych Dariusz Chabiera,Bora-Komorowskiego 8,52.224405700000005,21.09899581382863
Pazurki i Bzdurki KAMILA KULIŃCZYK,al. Aleja Władysława Reymonta 54,52.28387405,20.94132513488312
Krzysztof Kwiek,Włodzicka 4,52.199066450000004,21.16453343458029
Zakład Instalacji Sanitarnych Ogrzewczych Kotlarstwa i Elektromechaniki Grzegorz Gromacki,Biskupia 93,52.24309665,21.121302282155526
"ZBIGNIEW DEMIDOWICZ Przedsiębiorstwo Prywatne Handlu i Usług ""GRANER"" - Zbigniew Demidowicz",Wyganowska 18H,52.3548778,20.98818007787997
NO EXIT wspólnik spółki cywilnej Grzegorz Faliszewski,Ursynowska 72,52.19686065,21.013905857583453
DORADZTWO PODATKOWE MAŁGORZATA TRZĘSIMIECH,Kożuchowska 10F,52.204298699999995,21.17291580323812
HASZTAG Maria Winek,Połaniecka 19a,52.15855275,21.187009845841708
Grzegorz Jędrzejczak - wspólnik spółki cywilnej MELOPA,al. Aleja Wilanowska 355,52.179474400000004,21.015670089200068
GRAŻYNA URBAŃSKA CARTA,TOMNICKA 24,52.20248505,20.921322070228925
pH syller PRZEMYSŁAW SYLLER,OLIWSKA 11EF,52.280909949999995,21.021637206645792
Auto Partner 24 Bożena Tarczyńska,al. Krakowska 48/52,52.16950185,20.938402888273387
Łukasz Maciejewski,ENCYKLOPEDYCZNA 16b/190,52.305386600000006,20.92796413954994
Kuźnia Inspiracji,Szuberta 6,52.2044693,20.899720900993394
PIOTR NIEMCZYŃSKI AD NOiR,Odolańska 48,52.200391350000004,21.013610147959554
Dodem DOROTA DEMCZUK,Piasta Kołodzieja 15d,52.30957585,21.0452418194714
PIOTR WIELICZKO DEKORA-STYL COLLECTION,Górczewska 212/226,52.2400326,20.9064961
Bartosz Szwedzik,Kominkowa 5,52.31057465,21.04970559982159
ELPROMO Inwestycje Energetyczne Marcin Ołdziej,Cyklamenowa 31,52.21296705,21.244580999238295
Anna Łapin BIŻUTERIA,Żonkilowa 26,52.20219615,21.161069004333868
JÓZEF ADAM ZUBELEWICZ J.A.Z.,PACHNĄCA 69,52.1468544,21.063257773371618
Perfect Mind szkolenia. Piotr Mady,Lucerny 40,52.2138731,21.145717707184772
Kancelaria CRSC JAROSŁAW P. LEWANDOWSKI,Irysowa 16a,52.1755546,21.01793691383833
ERGO-PAUL PAWEŁ GIEMZA,Dukatowa 18,52.20078825,20.921895603147263
Tadeusz Piątek w spadku,Armii Krajowej 14a,52.250630799999996,21.217973414993786
Adam Kowalski,ul. Szaserów 111/22,52.2479431,21.0978873
ANNA POPIOŁKIEWICZ GABINET STOMATOLOGICZNY,Orchidei 6,52.17297035,21.18466569235683
darewit.pl Ewa Zwierzchoniewska,Licealna 81,52.27213625,21.160927143437046
CONSTRUCTION PROJECT MANAGEMENT TADEUSZ OSOWSKI,MYDLARSKA 17F,52.208385050000004,21.147069720078672
GABINET PSYCHOTERAPII INTEGRATYWNEJ MAŁGORZATA LIPKO,Pląsy 22a,52.146316999999996,21.009391521033212
SERWIS AUTO-RAMA HENRYK REMBIELIŃSKI,Piotra Skargi 62,52.2704756,21.04533333818083
ANNA ROSA Property,PRYMASA AUGUSTA HLONDA 8B/103,52.1606593,21.06642365543945
"JANUSZ SZCZEPANIK PURB ""KASBUT""",Raciborska 16/18,52.3552492,20.9827464
MAŁGORZATA DZWONKOWSKA,Gryfitów 23,52.30513594999999,21.03816472873293
Pixel Creature Kamil Trociński,WAŁ MIEDZESZYŃSKI 38L,52.15315935,21.189727035919233
Indywidualna Praktyka Lekarska Aleksandra Majek,CHODZIESKA 55,52.19076135,21.138526207455104
Jerzy Stańczuk VERDE JERZY STAŃCZUK,Olszynki Grochowskiej 29,52.2404324,21.120141646840388
Kancelaria Adwokacka DOMINIKA WOLF,Piechoty Łanowej 53,52.175005799999994,21.08259261915983
TRS Maciej Mielecki,altowa 34,52.1986353,20.962890476790633
Danuta Sasin,Bakaliowa 10,52.236623,21.12876012659396
DARRIO Dariusz Kalicki,ZWOLEŃSKA 100,52.20172055,21.158049133841846
Magdalena Szerszeń Sharada Art, CHMIELNA 106B/130,52.229293600000005,20.998152506348163
"""STAN WATCH POLAND"" wspólnik spółki cywilnej Andrzej Cichocki",al. Róż 7,52.2216076,21.021885844653816
HANDEL DROBIEM - Andrzej Tyszka,Nefrytowa 3,52.280491350000005,21.079640924986553
TASKNET JERZY TRACZ wspólnik spółki cywilnej,Wąski Jar 10,52.134307699999994,21.07888340963637
MAJA MAZUR,Piastów Śląskich 71,52.26488515,20.91515783552108
Jan Prusakiewicz,KARTONOWA 21A,52.196384050000006,21.16555040709359
ADAM ROSOCHACKI,KORZYSTNA 37,52.2895897,21.07033780147035
FRYZJER DORA DOROTA PAWŁOWSKA,ŚWIĘTOCHOWSKIEGO 3,52.23509845,20.897297303597462
Magical Pictures PR Agata Krysztofiak,Ostródzka 89K,52.31254355,21.048947961835253
JAN ZAWADZKI COLORAMA,JUTRZENKI 99/101,52.19020645,20.92677781322694
Praktyka Lekarska Olga Kamińska,ul. Wiejska 9/14,52.2259292,21.0256644
ADAM HANKE,DOSTĘPNA 20,52.262993449999996,20.90747240927407
CEZARY CZAPLICKI BUSINESS ENGLISH CENTRE.,Lucyny Messal 7B,52.333118549999995,20.992509361756255
GABINET LEKARSKI PROF. PIOTR MAŁKOWSKI,DUNIKOWSKIEGO 24,52.1527256,21.024731350565006
MATEUSZ CIEŚLIŃSKI MCNEXUS,GUSTAWA MORCINKA 3B/161,52.260672299999996,20.919346100000006
AB CONSULT Andrzej Bogusz,Zasadowa 10A,52.1827834,21.170829076719393
MONIKA MACHNIKOWSKA MOMA,KANARKOWA 13,52.13586155,21.027408943820355
Joanna Kołodziejska wspólnik spółki cywilnej KOKO,Gubinowska 15,52.172563600000004,21.06928581480264
KONSULTACJE BIZNESOWE ANNA MAZUR-KŁUCJASZ,ŻYWICZNA 19D,52.3206717,20.981626471239764
"JAN GODLEWSKI ARCHITEKTURA, URBANISTYKA, WNĘTRZA - FIRMA PROJEKTOWA",CHMIELNA 116/118/108,52.228671500000004,20.996579673868062
One Way Alexandr Kuklin,al. Krakowska 155,52.1814899,20.948920067857145
ARISTON INTERNATIONAL MICHAŁ WOCIAL,Idźkowskiego 5/7/14,52.22751475,21.040712688001747
Marek Profus,Okopowa 56/251,52.2454228,20.978039954681638
JACEK STACHOWICZ JSOFT,KSIĘCIA BOLESŁAWA 7E/243,52.2531138,20.936016196799816
DIGITEK Marcin Kiec,Aleja Lotników 1,52.1739084,21.0149911
SZYMON DĄBROWSKI NOMUS,Połczyńska 51,52.21824895,20.9101219707457
Tools 2 Lead - Olgierd Świda,Frenkla 11,52.16333725,21.21364929312827
UGF Łukasz Wiejak,ul. Wiatraczna 27/103,52.2455547,21.084017
AGNIESZKA WAJDA - AGIDIET36,BOBROWIECKA 3a/233,52.1972994,21.044353428501594
GRZEGORZ KASZYCKI Auto Naprawa - Grzegorz Kaszycki,Codzienna 59,52.2911323,21.067798066708228
RAFAŁ WICHROWSKI ARKADIA Rafał Wichrowski,al. Wilanowska 287,52.17615155,21.037916189411227
HUBERT ROMANOWSKI CONTI ACCOUNTING SERVICES Hubert Romanowski,POLECZKI 12,52.15453745,21.012811502000183
GETHSEMANE RADOSŁAW KORDOWSKI,al. Prymasa Tysiąclecia 62,52.23474455,20.957260788116322
"MARIA DAUKSZA ""DAMAR""",Ambaras 14,52.34052235,21.001354782430255
Sławomir Mataliński SPRZEDAŻ ART.MOTORYZACYJNYCH,Skaryszewska 6,52.24864605,21.04811779293632
RM AUTO Robert Mazur,Księżycowa 24,52.27140785,20.91971170875199
Jerzy Piaskowski,Młodnicka 58b,52.24596905,21.136992274972002
ALMA DANUTA MATUSZKIEWICZ,Grzymalitów 12F,52.3368189,20.939067089179577
Włodzimierz Górski Trewir Zarządzanie i Administrowanie Nieruchomościami,Czerniakowska 28a,52.2026669,21.051430712746875
Barbara Krzewska GM PROJECT,Forsycji 30,52.2121196,21.244704311325968
Iwona Ługowska,Elegijna 71,52.1663045,21.033156181231142
DK SOLUTION DARIUSZ KARPIEJ,Świderska 129,52.31966490000001,20.943532735270512
UGANDA AGNIESZKA KOBYLIŃSKA,BAŻANCIA 40B,52.10870925,21.026437425053366
Janusz POKORSKI,Trakt Lubelski 275T/6,52.2136608,21.129056822001765
JAWA JANUSZ WÓJCIK,II Armii Wojska Polskiego 56a,52.1886814,20.879333505030516
BORYSEWICZ DOROTA,Starzyńskiego 6,52.25037095,21.240269353890305
PIOTR KOWALSKI PRZEWÓZ OSÓB. WYNAJEM SAMOCHODÓW OSOBOWYCH Z KIEROWCĄ,Sikorska 3,52.2182946,21.147241265862114
Paweł Starzyński Dzik Consulting,WAŁ MIEDZESZYŃSKI 209,52.168998,21.154969511978784
SPECJALISTYCZNA PRAKTYKA LEKARSKA W MIEJSCU WEZWANIA ANNA SALAMON-FERENC,Zakamarek 38C,52.13461185,21.114416849610244
TAREK HAMDAN PERSONAL TRAINER,al. Aleja Władysława Reymonta 52,52.2837343,20.941250218357595
Maksymilian Karlsbad,Wolbromska 38,52.2824237,21.079675092136576
"ADAM SZAŁAŃSKI ""CHAMPION""",Chmielna 128,52.22804845,20.994181454591462
JANUSZ WYDRYSZEK,OKRĘTOWA 64A,52.225265199999996,20.904293968126886
Rewiter NCB Łukasz Terlikowski,CYPRYJSKA 60,52.1727355,21.05885855407779
Zjednoczenie Rowerowe Paweł Cyburt,al. Sztandarów 83,52.2764897,21.1707612
KANCELARIA ADWOKACKA KAROLINA DWORZNICKA,al. Aleja Wilanowska 240,52.1793732,21.023541108333326
Barbara SIKORSKA-GOCŁOWSKA AZIZA ART,Bokserska 45,52.1678904,21.00420162197196
JACEK FILIPECKI REMA 1000 POLAND,ROZŁOGI 16,52.226833299999996,20.900476810292226
ZYGZAK JANUSZ PROKOPIUK,TURKUSOWA 19,52.221017200000006,21.224471219009587
"MONIKA LEONOW ""MOBI""- HURTOWNIA ZABAWEK",NIESZAWSKA 3D,52.29033715,21.021544541767955
Adrianna Kacprzyk Consulting & Movement,ul. Okopowa 18/106,52.2412877,20.9772936
EDWARD MALKY,Jeziorowa 67U/5,52.19808715,21.125151824105483
Jadwiga ŻYCKA,pl. Plac Thomasa Woodrowa Wilsona -,52.2696155,20.9861309
BARTOSZ ŁOJEWSKI ALFA & OMEGA,Dobrodzieja 9,52.132273100000006,21.108961866179392
VIBELIGHT JAN WOJTCZAK,JANA SEBASTIANA BACHA 26B/901,52.1707742,21.021728433464624
Adam Danisz - wspólnik spółki cywilnej STUDIO 69 COMPANY,al. Aleje Jerozolimskie 92,52.2232084,20.98109224650068
1) Dominik MYDLARSKI WYRÓB GALANTERII Z METALU ; 2) Dominik MYDLARSKI wspólnik spółki cywilnej WYRÓB GALANTERII Z METALU,Estrady 68,52.2946877,20.879638200188204
Doradztwo Krzysztof Krzęczko,Mrągowska 12NH,52.16965775,21.171017044512784
Edward Mier-Jędrzejowicz PROASANA TECH,VII Poprzeczna 18,52.21482005,21.16218571290905
Elwira Kadulska MikaEll Usługi Pogrzebowe,Myszkowska 7,52.26787955,21.05465966794452
IMMO KANCELARIA JOANNA MARZĘTA-CZUCHAJ,Syta 106C,52.1682981,21.110111082057443
Leszek Stułka STUDIO USłUG PROJEKTOWYCH TELTEL-2,Gubinowska 6A,52.1723548,21.07011723176293
Doradztwo Biznesowe Radosław Cieślak,Wał Miedzeszyński 186w,52.16933645,21.159641259708682
UWE MEYER UM-Consulting Uwe Mario Meyer,Krasnowolska 82K,52.143514,20.998058831284457
Lepsza Zmiana Agnieszka Porzezińska,MARCEPANOWA 42,52.14957005,21.0877032616423
Joanna Adelson,al. Aleja Dzieci Polskich 7,52.207461300000006,21.188388412710683
REGINA KAMIŃSKA-KANIA,pl. Żelaznej Bramy 1,52.2395,21.0001
JADWIGA TUREK ZAKŁAD KAMIENIARSKI I USŁUGI POGRZEBOWE,Złotej Jesieni 17,52.1714904,21.2330322
Tadeusz Nowak,Szafranowa 6,52.22146515,21.240919312447915
SAILIT DARIUSZ TRZCIŃSKI,SZAFIROWA 32a,52.16869265,21.193071843912506
INDYWIDUALNA PRAKTYKA LEKARSKA WOJCIECH MACIEJEWSKI,Strumykowa 39,52.33269905,20.943715934663448
Lapila beauty clinic Dorota Jarzynka,ul. Tamka 14,52.237932,21.0278641
Joanna Tułodziecka,Berneńska 11,52.22380795,21.06292391057872
MAGDALENA TRESTKA-BIAŁKOWSKA SPECJALISTYCZNA PRAKTYKA LEKARSKA,Chmielna 73C/207,52.22786055,20.997124697230255
MARIOLA WIŚNIEWSKA,Kwitnąca 15A,52.2767073,20.91984115134743
KRZYSZTOF SZAFRANEK Usługi G.K. Szafranek Krzysztof,Klaudyny 32E,52.283861849999994,20.971762833526675
PM GRUPA Magdalena Ptaszyńska,Syta 9,52.1507277,21.12409085558771
""" S A R E D O "" ROBERT PAZIO",Szafarzy 5,52.2657555,21.149230359766168
BIURO HANDLOWE NINA JANINA WĄSOWSKA,Diamentowa 19,52.218695749999995,21.22843497579742
MK MAREK KAŁUŻYŃSKI,Muzyczna Warszawa/36,52.130405249999995,21.014257414488704
Andrzej Moszczyński,Internetowa 43c,52.3184556,21.074328116225807
JJB JANUSZ BORODZIŃSKI,Górczewska 90,52.239396799999994,20.944542909771783
Piotr Jakubowski Target Group,Świderska 109J,52.31698255,20.945597540931423
"Maciej Bylica ""ELBY"" Instalacje i Urządzenia Elektryczne",Czardasza 18,52.19172485,20.963433298167896
Ryszard Jasiewicz JUBILER JASIEWICZ,Legendy 6C,52.2315341,20.912638978360917
J.T.B JACEK BORUC,Fabryczna 18,52.216811750000005,21.22982221794411
Bartosz Przyłucki Przyludziach,KRASKI 35,52.1507954,21.02318466597878
Sprzedaż detaliczna Grażyna Małuj,Męcińska 22,52.2429697,21.085992216585247
BARTHA CONSULTING GROUP AGATA PARTYKA,al. Aleje Jerozolimskie 181B,52.2103455,20.952744326694162
NOWAX - KRZYSZTOF NOWAKOWSKI,OPŁOTEK 42A,52.2917544,20.900812572338477
Jakub Wawrowski usługi lekarsko-weterynaryjne,BOCIANIA 37A,52.1494756,21.020703656112165
LERS Bartosz Marczak,SPÓJNI 35,52.284401849999995,21.062755211841996
PAWEŁ TRZASKA TOP-BILARD DART KLUB,Powstańców Śląskich 106B,52.25529625,20.919227642820367
URSZULA PAZIK,SZADKOWSKIEGO 5,52.25253395,20.92271179985567
UNIQUECENTER OLGA HAWRYLUK,Chudoby 77F,52.33889315,21.063432805003337
Marta Chowańska,ul. Waliców 20/204,52.233626,20.9931489
ONECASE Radca Prawny Maciej Żakiewicz,ul. Grażyny 15/201,52.2040171,21.0225903
Jerzy Kapka MECH-MET JERZY KAPKA,Rechniewskiego 9A,52.22797575,21.104317092091865
Trueskawka ALICJA LASZUK,Zimorodka 8,52.1497194,21.02955202629157
Piotr Wójcicki HELIOS,Sienna 82,52.2302361,20.992677991807327
PROHAIR IRYNA GROMOVA,ul. Bonifraterska 6,52.251736,21.0026499
Aleksander Kubicki,Codzienna 57,52.29076805,21.067454257874772
""" M O D E R B U D "" JANUSZ NIEDZIAŁEK",Stelmachów 23A,52.25602485,21.1259218805817
GRZEGORZ KICZKO,NAD WISŁĄ 5D,52.15298575,21.184487610383943
AGATA JUREK-ZBROJSKA KANCELARIA RADCY PRAWNEGO,Bruzdowa 142J,52.17776665,21.11260028606138
Paweł Komuda KOMUDA,Jordanowska 4,52.23687735,21.12746872981625
Witold Rosłonkiewicz,Warszawa 4,52.2643717,21.08941012129668
"HANNA DAMIĘCKA INTROLIGATORNIA ""INTRO-AN""",BYSZEWSKA 5,52.29057195,21.081289594718793
MIKOŁAJ MROZIŃSKI,Wyczółki 35a,52.155845400000004,21.005943601592097
USŁUGI WETERYNARYJNE ZOFIA KACPRZAK,Kosodrzewiny 10,52.15644445,21.204894109485124
Anna Kowalewska,Słonecznego Poranka 25,52.33825695,21.073080835702566
Janina Łuczak *PATIO* Biuro Obrotu Nieruchomościami,Korkowa 85,52.237723450000004,21.14303017749816
"Life Science Consulting, RAFAŁ CIESIELSKI",Opieńki 8,52.1089057,21.09983698089032
Mindbenefit - Agnieszka Świderska,TWÓRCZA 75E,52.322573000000006,21.036781559682186
NOVEROM TC ROMAN KACZMAREK,Kulisiewicza 5,52.1316697,21.079292249810614
SMAKOWITEK KRYSTIAN WITEK,WALCOWNICZA 30a/1,52.16292675,21.21786454318635
GRAŻYNA SOWIŃSKA CENTRUM MIKROSKOPII S.C. SOWIŃSCY,Arkuszowa 58,52.28430135,20.8998209060463
MARIUSZ DOBIASZ - wspólnik spółki cywilnej ARKA s.c.,Łuki Wielkie 9A,52.208630150000005,20.909761879687096
"PIOTR MIKA ""INTRABIT"" - wspólnik spółki cywilnej",PODKOWIŃSKA 2A,52.248780499999995,20.876058875242144
Marcin Zabielski Consulting,Zuga 4,52.28062405,20.95574013341122
STEEL DESIGN TOMASZ OSIŃSKI,Farysa 23,52.30496495,20.939615225022813
GREGORY SZTUKATERIA Grzegorz Taciak,Złotej Jesieni 15,52.171540500000006,21.231484015129602
Piotr Dymny,MYŚLIBORSKA 95,52.3188914,20.957015626913858
"KRZYSZTOF TRZCIŃSKI FHU ""TEKAN""",STROMA 55,52.233270649999994,20.924879318483903
Dawid Miłosz,WOLNOŚCI 13,52.20298235,20.87125444204235
ANCARS Andrzej Siński,Korsuńska 10,52.229025449999995,21.146494088616073
Jerzy Żebrowski MYJNIA SAMOOBSŁUGOWA,Europejska 107A,52.15464555,21.094322832337433
OPTYK OPTOMETRYSTA ŻANETA KACZANOWSKA,Ananasowa 33/U4,52.2087056,21.066991
STANISŁAW SAJDAK,SUCHY LAS 22A,52.1863869,20.87942178051044
ROBERT SZCZEPAŃSKI,JÓRSKIEGO 13,52.277827200000004,21.063243818599297
"EMILIA MOREK APTEKA ""BONA VITA""",POWSTAŃCÓW ŚLĄSKICH 30,52.22981995,20.91559405851064
Psygoda TOMASZ KOZERA,Przewodowa 76,52.17221615,21.18070677377296
MVP SEBASTIAN KOPEĆ,PRZEWORSKA 2B/346,52.2539062,21.082879390525353
Roger Broszkiewicz BROG,Garncarska 37C,52.1792151,21.190145391555546
Jakub Fiema Chef,Polarna 4,52.2047128,21.158871528191245
"GABINET LOGOPEDYCZNO-PEDAGOGICZNY ""GALOPED"" AGNIESZKA ŁAPIŃSKA",Witkiewicza 29,52.2796606,21.01366837068919
KDW KRZYSZTOF TOMASZEWSKI,LASEROWA 9,52.259969049999995,20.900456424223975
"FIRMA USŁUGOWO-HANDLOWA ""GRAFTECH""",WILLOWA 13,52.2070609,21.023179135344567
Usługi wielobranżowe Daniel Żukowski,Al Krakowska 143,52.18042035,20.947737659654862
"Grzegorz Szelerski Przedsiębiorstwo Produkcyjno-Handlowo-Usługowe ""GRATEX""",Szafirowa 31,52.16894155,21.192289286617314
Stefan DRATWICKI SCUBA SERVICE - wspólnik spółki cywilnej,Stoczniowców 9,52.221729350000004,21.1065370646604
TOMASZ SUPRON TM ZONE - Nazwa skrócona: TM ZONE,Chlubna 102,52.35948245,20.98099889324305
TOMASZ DOBOSZ MONTAŻ NAGROBKÓW,al. Aleja Bzów 63,52.190279700000005,20.885081207464463
TDC TOMASZ DOMAGALSKI,Kobzy 1,52.117692399999996,21.01610845361039
Luqman Adedokun,wrobla 30,52.17661,21.032761839144847
"""GALWES"" WIESŁAW GALLEWICZ w spadku",Przechodnia 1,52.2534068,21.22167509295003
Profesjonalna Pielęgnacja Dłoni i Stóp Magdalena Mroziewicz,"al. Aleja Gen. Antoniego Chruściela ""montera"" 13",52.25854315,21.159980834436027
EUROCREATION MICHAŁ ROGATKO,Dychowska 13,52.2189494,21.1374587106974
A) GINTER&GINTER KANCELARIA RZECZNIKOWSKA - WSPÓLNIK SPÓŁKI CYWILNEJ PIOTR GINTER B) GINTERWORKS PIOTR GINTER,ul. Szpitalna 1,52.2327832,21.0149495
MANUFAKTURA MARYSIN GRZEGORZ ZACHAJ,POTOCKICH 61A,52.2322384,21.15108691105769
AUDIT MANAGEMENT KATARZYNA NOWAK,Zaolziańska 3,52.16276505,21.020509031378687
Piotr Blumert EXCELLENCE,Żonkilowa 22,52.20176555,21.16143689079128
Michał Wilk Prywatna Praktyka Lekarska,Myszołowa 24,52.1695018,21.17692766067806
ADAM PODLASIŃSKI JETTA,ŁĘGI 10,52.2141873,20.8867619
"""DAREX""  DARIUSZ  GNIADO",Brata Alberta 45,52.24014605,21.191824378749747
JAKUB SZYMAŃSKI,DOMANIEWSKA 35B/133,52.1827962,21.00839729890351
SPRZEDAŻ KWIATÓW HURT-DETAL PAWEŁ JANKOWSKI,ul. Nowolipki 14/2,52.247098,20.997544
Eugeniusz Hałuszczak Mechanika Pojazdowa,Zespołowa 6,52.1713522,21.183208133281607
Ghost Group Paweł Ceglarski,DZIĘCIOŁA 5a,52.166942399999996,21.161959800858945
Global-Trade Dariusz Paćko,Słowicza 31,52.1883284,20.962142901473392
Bex Andrzej Szyluk,MRĄGOWSKA 28k,52.1716816,21.167703019898504
JUSTYNA KĘDZIERSKA ATELIER WSPÓLNIK SPÓŁKI CYWILNEJ,"al. Aleja gen. Antoniego Chruściela ""Montera"" 62",52.26111075,21.164901650943392
"1/Bożenna Jarosz Kancelaria Doradcza Notka S.C. B.Jarosz&M.Żukowska
2/Bożenna Jarosz Notka",Etiudy Rewolucyjnej 5/7,52.1904405,20.98930011264237
DASAJ TECHNIKA DIAMENTOWA FIRMA BUDOWLANA DOROTA SITEK,Szafarzy 63,52.26960725,21.159681505019684
Robert Krupiński,al. Niepodległości 143B/102,52.20356155,21.008883848525997
"ZUZANNA DEMBOWSKA-SMYK ""LANGUAGE CAFE""",Okrężna 123,52.1839827,21.063849767137153
Architekt Magda Kaniewska,Przeworska 4a/428,52.25442915,21.08362354097377
Multi - Kred Urszula Gąsiorowska,Domaniewska 17/19/133,52.183044100000004,21.015731228075325
KANCELARIA RADCY PRAWNEGO DR TOMASZ IWAŃCZYK,ul. Pułku Baszta 4/40,52.1914046,21.0055818
AURIGA EWA BORKOWSKA,KOCJANA 57,52.252666250000004,20.874007303595935
KRZYSZTOF BOJAKOWSKI,Łamana 7/56,52.204107699999994,20.913855256776934
PPHU JANEKS-JAN SEYFRIED,Patrolowa 6,52.2112651,20.935269736871508
ANDRZEJ KOMOROWSKI Usługi Asenizacyjne,Wał Miedzeszyński 49,52.1531038,21.186463137478242
MO Mariusz Oleksiuk,Malownicza 20,52.1778361,20.939775743397313
JS JANUSZ SNARSKI,Białołęcka 363,52.3250726,21.03165517029262
1) B57 IZABELLA BUCZYŃSKA 2) IZABELLA BUCZYŃSKA WSPÓLNIK SPÓŁKI CYWILNEJ B57 IZABELLA I ZOFIA BUCZYŃSKIE,borowiecka 57b,52.18201945,21.15693698753298
DIGI DAGMARA CIBORSKA,Melonowa 11A,52.16806205,21.056739771306887
PIOTR MOMOT AGENCJA USŁUG FINANSOWYCH,Jana Pawła II 27,52.2165335,21.2409176
F. H. P GREGIER ARTUR GREGIER,Roty 18,52.2632836,21.154980487991537
AMPLIFY IGOR ROSŁONEK,KOMBAJNISTÓW 9,52.202878600000005,21.136200671970713
MARIUSZ KWAŚNIEWSKI,Płochocińska 107K,52.339164249999996,21.02391880736166
KRZYSZTOF WIERZBOWSKI Kancelaria Adwokacka,Wisełki 58,52.18616765,21.20257347770322
ZBIGNIEW SZULECKI AGENCJA - 55,SPYCHOWSKA 2,52.251015100000004,20.875453899263867
"Marek Białas ""DELTA-SERWIS-AUTOMATY, FLIPERY,PROGRAMY""",Naddnieprzańska 15,52.238475,21.128194088769035
Ireneusz Hertman,Farysa 27g,52.30483005,20.93883546553638
PPU MADRA Marzena Drabecka,Gwiaździsta 15A/407,52.281059150000004,20.984682468164824
SECTEK MAREK PODGÓRSKI,Słotna 17A,52.18665595,21.180158691510442
"PRZYCHODNIA WETERYNARYJNA "" MARYSIN"" TOMASZ SABA WSPÓLNIK SPÓŁKI CYWILNEJ",Korkowa 103,52.238063,21.145503155948187
DARIUSZ WOCHELSKI,FORTUNY 23,52.21638165,20.905341961242137
MADWORKS MARCIN GLOEH,LOKALNA 10,52.167706,21.20928308581461
"KRZYSZTOF CZAJKOWSKI ""CZAJNA""",Podróżnicza 16A,52.3290715,20.978406873129224
MAŁGORZATA SKŁODOWSKA,Samarytanka 51,52.279097050000004,21.065494002729192
WANDA CHOMCZYK KIOSK,Reymonta 17a,52.275968,20.937706075126172
Anna Budzik Ubezpieczenia,TYMOTKI 5,52.355872000000005,21.05561620851436
JMA JOANNA KOWALCZYK,Jana Żiżki 12,52.337512149999995,20.961974411481712
PAULINA ZIÓŁKOWSKA-ŁUKASIK TĘCZOWA KRAINA MALUCHA; TĘCZA,Strzelecka 27/29/110,52.26268775,21.04305699231559
Know how Łukasz Popko,Światowida 51c/40,52.3216395,20.94154370578439
ARS LABOR KAROL PIETRZAK,Ostrobramska 73c/104,52.231644349999996,21.115293624071285
OŚRODEK KSZTAŁCENIA ALMAT DARIUSZ GAŁKOWSKI,Fabiańska 13B,52.2515343,20.874570437393736
Global Explorers Aleksandra Gren,Lokalna 21,52.168085000000005,21.209116991423908
VITROPLAST DYSTRYBUCJA FILIP BLOCH,RUCZAJ 89,52.15029915,21.112655600716558
WALDEMAR GÓRAL BUDMA,PLAC CZERWCA 1976 ROKU 2,52.2021938,20.893019551562066
Danuta Gudzowaty DG INVEST,al. Wyścigowa 10/12,52.1667422,21.01238399591559
Kancelaria Radcy Prawnego Anna Smolińska,BARDINIEGO 17,52.17903535,21.229237091174703
GRAŻYNA PNIEWSKA PRAKTYKA LEKARSKA SPECJALISTYCZNA,Mazurska 11,52.340206699999996,21.00114366070013
JERZY LESISZ J.M.L.,NEWTONA 7,52.25625625,20.892751241930235
PRYWATNA PRAKTYKA LEKARSKA RENATA GĄSIOR-KOZIEŁ PEDIATRA,Syta 104K,52.1681999,21.11087110419643
Marta Szatkowska - wspólnik spółki cywilnej VOSSEN POLSKA,Antenowa 35,52.217496249999996,21.149507471809013
TOPOLOGIC CONSULTING PRZEMYSŁAW TUROS,Ołówkowa 43a,52.343451200000004,20.98416796604476
Jan Wojtalik,ul. Czerska 18/430,52.2063606,21.0451621
KAMIL JÓŹWIAK AUTO - KOP,Mehoffera Józefa 117,52.3480902,20.97615569470046
Inżynieria Krzysztof Bąk,BARTYCKA 116,52.21304295,21.049657240527857
Marketing Systems Arkadiusz Bicki,Poprawna 10D,52.20994885,21.119010885576927
MARTiKON MARTYNA BOGUŚ-SOBOCIŃSKA,STRZYGŁOWSKA 15,52.17185215,21.15296970608108
BOOST TEAM MICHAŁ CIECIERSKI,Modlińska 243,52.33096895,20.964892093402774
KANCELARIA RESTYTUCJA - DEVELOPMENT EMIL PARADYSZ,Trakt Lubelski 16,52.173657899999995,21.154438510032627
"MAREK GAWĘCKI ""FURNI FLO""",MARYSIŃSKA 36A,52.224309950000006,21.154572214859066
Farcaster Karol Tołkacz,Korkowa 163a/132,52.2419302,21.15954744971271
INEO TRAINING SŁAWOMIR BŁASZCZAK,Wełniana 27J,52.13061985,21.0520833588198
Ryszard Jeziorek,Gliwicka 18a,52.284182599999994,21.066529768054206
SŁAWOMIR SZYMBORSKI USŁUGI ŚLUSARSKO BUDOWLANE,Klimontowska 71,52.21795705,21.14847647139313
Włodzimierz Muchowski,GAWOTA 10A,52.13830445,21.010181975924603
Damian Włodarczyk,Modlińska 56B/133,52.30604705,20.989700773310275
AWODENT Wojciech Radwański,Gołębiowskiego 2,52.26234475,20.98117908533682
Pracownia Krzysztof Bocian,Podmiejska 24,52.2652601,20.912673807122303
Zofia Głowińska,BIEDRONKI 11,52.168775,21.088574200307807
Palisander Michał Szaryński,Ojca Aniceta 31F,52.305496149999996,21.035991179482522
Tomasz Rębkowski,Jerzego Ficowskiego 5,52.25597715,20.96179994822699
Kancelaria Adwokata i Doradcy Restrukturyzacyjnego JACEK CHOROMAŃSKI,Borkowska 15A,52.21678425,21.21998629317857
A VISTA JERZY SIESICKI,Chełmżyńska 10A,52.24269715,21.135552138685032
JADWIGA HUDYCZ BIURO RACHUNKOWE ILOCZYN,OSIEDLE PRZYJAŹŃ 145,52.234581500000004,20.915499882028975
MACIEJ MIRONIUK CONSULTING SERVICES,Poprawna 110S,52.219539850000004,21.1150158385307
IP Innovations Przemysław Furdal,Jasnodworska 3B/250,52.2606453,20.960091673345296
JESSICA REDAS PMU ARTIST,LILIOWA 35T,52.1629683,21.184997149722157
KW INVEST KATARZYNA WIATROWSKA,al. Wilanowska 97/D,52.1732084,21.049675342108436
ADAM CUDNY AM Cudny & Company,Mączeńskiego 1,52.15006995,21.01658554472469
"MOJE442.pl MARCIN KURKOWSKI, PAWEŁ KASZUBA S.C.",Gardenii 33,52.2165485,21.152076841781046
LYNX MANAGEMENT CONSULTING WOJCIECH STOLARSKI,JAGIELSKA 57M,52.11428145,21.021219706131703
Flora Tomasz Kapuściński,Żołny 27,52.13738075,21.02702086703242
KANCELARIA ADWOKACKA IZABELA FORTUŃSKA-WOSIK,Kuropatwy 34A,52.10627435,21.023191245969777
TENNIS WAY KRZYSZTOF ZARZYCKI,Modlińska 281,52.33691625,20.95788378337611
WITOLD HAŁASIŃSKI Serwis Maszyn Pralniczych,Wiertnicza 53a,52.17043295,21.082089461153792
Wulkanizacja Sprzedaż Opon Waldemar Królak,Łukiska 17,52.2358377,21.096105774466974
Edyta Zalewska Kessi spa dla kota i psa,Górnośląska 5,52.2254638,21.039640290265776
WBW PROJEKT - WOJCIECH JASIŃSKI,ul. Igańska 20/123,52.2394006,21.0920683
INDYWIDUALNA SPECJALISTYCZNA PRAKTYKA LEKARSKA KRZYSZTOF NICAŁ,Książkowa 49F,52.328592150000006,20.949870561110316
PRYWATNA PRAKTYKA CHIRURGICZNA I ENDOSKOPOWA JAROSŁAW KOBIELARZ SPECJALISTA CHIRURG,pl. Joachima Lelewela 22,52.272970799999996,20.97926760679418
WIESŁAWA SAWICKA,Nad Wąwozem 18,52.13327155,21.07891872550328
BARBARA SUSZCZYŃSKA,Żiżki Jana 9a,52.337585149999995,20.960348271396953
Tomasz Floriańczyk - Prywatna Praktyka Lekarska,Wodniaków 33A,52.204041849999996,21.125376233991076
Maple Tree Montessori Katarzyna Hudź-Skoczek,PIECHOTY ŁANOWEJ 46A,52.17486475,21.084569501472153
Katarzyna GUTOWSKA F.R.B. KATARZYNA GUTOWSKA,Urocza 74A,52.2404705,21.193078839400716
SERVICE FK BOŻENA KOWERSKA,Osada Ojców 5,52.239092400000004,21.124596699999998
G30 Jan Grudziński,Forteczna 1a,52.26862225,20.99532570541983
Robert Aleksandrowicz,POETÓW 6F,52.338341150000005,20.947291632515903
Proinwestor Artur Żabiński,RZEŹBIARSKA 19/A,52.2115376,21.16435193124645
ARKADIUSZ GRZYBEK,Berneńska 3a,52.2233866,21.06484990282706
INDYWIDUALNA SPECJALISTYCZNA PRAKTYKA LEKARSKA ANNA KLIMEK,Potockich 73,52.23331385,21.150841014038313
ŻAKLINA MURACH ARTYSTYCZNA PRACOWNIA PLASTYCZNA,Mandarynki 12,52.14545415,21.061383354691994
INDYWIDUALNA SPECJALISTYCZNA PRAKTYKA LEKARSKA   ZBIGNIEW KROGULEC,Kadrowa 90,52.2713093,21.159696680137426
Kancelaria Adwokacka Adwokat Magdalena Szajduk,ul. Solec 38/203,52.2352472,21.0322959
TOMASZ MAZUREK KARTON - DRUK,COKOŁOWA 37,52.224871750000005,20.905928506805864
"Mieczysław Pyrgiel ""PYSLA""",Międzynarodowa 58/60/103,52.2372181,21.064848353988744
theMilo Miłosz Piróg,Przydrożna 37A,52.3222512,21.02884339489448
PXF Lighting Jacek Bieniak,Jutrzenki 73,52.185681200000005,20.92378385352987
"""BBK PROJEKT S.C."" Krzysztof Jankowski wspólnik spółki cywilnej",Trakt Lubelski 195,52.20203455,21.13393399748727
ELŻBIETA LESZKO SAFETY CREATOR,Czołowa 38K,52.33482625,20.99185034601942
Po Dietę Nelly Grabiec,PODKOWY 3A,52.15908995,21.21556705
ŁUKASZ BYSTRZYŃSKI,WIĄZANA 8G,52.2009408,21.14493567470106
Ewa Krzyżanowska Quo Vadis HR Consulting & Development,Zapłocie 1A,52.1272474,21.101997750000002
Tomasz Dariusz Chorążykiewicz AGTOM,Rzymska 8,52.222943099999995,21.064619032699785
BOGUSŁAW TATUŃ NAPRAWA AGD,KONOPACKA 21,52.260126549999995,21.037808449295348
TADEUSZ KUFLIŃSKI NIERUCHOMOŚCI,Biedronki 35A,52.17214825,21.088145350257683
"SKŁADOWSKI SZYMON ,,Usługi Remontowo - Budowlane Szymon Składowski""",KÓRNICKA 27A,52.12217495,20.9940078650463
AFI MARCIN CICHOCKI,SPRAWNA 16D,52.34102765,20.941095733071514
AS Fizjo Aleksander Stypułkowski,pl. Plac Konfederacji 62,52.28008755,20.94686085664742
DORADZTWO MACIEJ PARCHIMOWICZ,ŚW. ANTONIEGO 5,52.21933935,21.221773712503115
Beata Kornacka,SĘCZKOWA 18B,52.20931804999999,21.11401764675029
MedEstetic KAROLINA WĄSOWSKA,JEZIOROWA 30ZC,52.1949055,21.1301085
"GRZEGORZ WOJCIECHOWSKI ""PPHU MURAL""",Szeligowska 30,52.2274636,20.88869716457143
"ANNA KAŹMIERAK Kwiaciarnia ""Miłosna""",TRAKT BRZESKI 56A,52.22289155,21.232024647698534
STACJA SPOKÓJ MARZENA DENKIEWICZ,sęczkowa 16M,52.208940850000005,21.112471092979877
WOJCIECH HARLAK OKBUD,PIANISTÓW 20,52.205693100000005,20.905386992118768
"""IKSAN"" IRENEUSZ KŁOS USŁUGI SANITARNO-GAZOWE",ul. Białobrzeska 22,52.2129594,20.9733797
Kacper Gazda MILO SOLUTIONS,Morszyńska 77,52.18218645,21.06356047242422
"ROMIP, PATRYK ROMATOWSKI",Wilgi 36,52.185284100000004,21.199331516971466
Atria.design Izabela Pietrzak-Antonowicz,PRZYCZÓŁKOWA 152G,52.13640315,21.104105015347468
GABRIELA CIURAKOWSKA Usługi menagerskie G.C,LEGIONOWA 20,52.21876585,20.905469412585468
"""Przetwórstwo Owoców i Warzyw Ewa Bochenek, Waldemar Bochenek s.c.""",Zabłudowska 4,52.190759650000004,21.147483601400367
"KANCELARIA PRAWNICZA ""IJ"" IWONA JADACH",Otrębuska 17,52.249155099999996,20.8771021793563
TREBOR FIRMA BUDOWLANA EWA DOROTA BUCHOLC,Żywiecka 14,52.18524425,20.9058277
Adam Zuchniak,SIKORSKA 26,52.219421600000004,21.148172721861755
BARBARA ŻUK,STERNICZA 123,52.2203796,20.903906414445757
FLO Ewelina Chrapa,ZAKAMAREK 50,52.13553255,21.111958227908325
Departament Słodkości Kaja Zielińska,INOWROCŁAWSKA 10,52.1774453,21.063721573571428
AGNIESZKA DYBOWSKA,RECHNIEWSKIEGO 3,52.225967600000004,21.103134010615513
Grzegorz Pyzel,Podkowy 91J,52.1683131,21.23577042386878
AUTO PARTNER AGNIESZKA KOWALSKA,Hoserów 13B,52.147493850000004,21.128494845546527
"Tomasz Krogulec ""USŁUGI BIUROWE""",Resorowa 20,52.171811250000005,21.068356331266216
ANIMUS Centrum Psychologiczne Karol Krzycki,HOŻA 86/410,52.224829799999995,21.006383472953218
ADWOKAT DOMINIKA WOJTYSIAK KANCELARIA ADWOKACKA,SERWITUTY 26,52.1861388,20.928891771907217
VR Anna Makowska,POPRAWNA 112M,52.21947145,21.113528479166668
KAROL SIENKIEWICZ K-SYSTEM. PL,Lidzbarska 23,52.3526977,20.988654321480013
"Andrzej Lisowski Andre Renard ANDRZEJ LISOWSKI "" w upadłości""",Chmielna 15,52.2325869,21.0163028
FHR Tomasz Świerczewski,Spychowska 63,52.2511686,20.870684702483302
BRS JAKUB MACIEJ HOLC,Piechoty Łanowej 25,52.1728899,21.084802673038517
Ewa Kowalska TRUST,Rogatkowa 39A,52.204455800000005,21.16190192091826
Bartosz Poraniewski,MROCZNA 9/11/13/107,52.2380838,20.934462135773266
Agnieszka Wesołowska AGULINA,Korkowa 135/137,52.23910065,21.150585403215562
USŁUGI MOTORYZACYJNE ANDRZEJ BUDZIAK,REYMONTA 23/282,52.281651350000004,20.93824607839139
eR X SERWIS Roland Kolasiński,Wólczyńska 69a/133,52.28135385,20.919933290900488
TADEUSZ WŁODARCZYK,BRYGADZISTÓW 19A,52.223666550000004,20.91197674495413
GRIT PR Anna Dziedzic,13/3,52.2319581,21.0067249
PRALNIA CHEMICZNO WODNA EWA NESTEROWICZ,Borzymowska 17,52.276033600000005,21.047846648311513
"Małgorzata GRADOWSKA-KRÓLAK ""M.G.K.""",Nowy Świat 4,52.230300299999996,21.02263910086207
DOROTA LATOS PRACOWNIA LADOR,Fantazyjna 5,52.27486565,21.064255052895284
Andrzejewska-Laskowska Joanna,al. Aleja Jana Pawła II 75,52.25302935,20.9830821196513
"Artur Gąsiorowski ""ART - BAK""",Grochowska 309/317/119,52.245917250000005,21.06409626998807
Parsley Methods Tomasz Główka,Trakt Lubelski 320,52.215977699999996,21.133422546547138
TRANSPORT CIĘŻAROWY I HANDEL KRZYSZTOF ZAMOJSKI,Klimontowska 72,52.217602549999995,21.149430812158055
GABINET PSYCHOTERAPII AGNIESZKA SZCZEPAŃSKA ,TADEUSZA KRĘPOWIECKIEGO 7A/211,52.2370384,20.93580249608999
KATARZYNA CHOCHOWSKA,Kobiałka 32c,52.35752075,21.04144691599854
CorpFin Service Tomasz Zapaśnik,MORAWSKA 1,52.1914909,21.13690680679829
ATMOSFERA RUCHU PAWEŁ DE POURBAIX,KSIĘCIA JANUSZA 41/43/112,52.24355305,20.939845816436115
ADRIANNA BIEDRZYŃSKA A & M,Walczyka 20,52.145758,21.0131172238398
RYSZARD SUWARSKI ROBES,Fasolowa 43B,52.20035135,20.90461789443993
ARTMAX ARTEM ELERT,FAMILIJNA 3A,52.30710785,20.982522262798696
AGNIESZKA KRAWCZYK,Ogórkowa 67G,52.162047599999994,21.159438286850815
Tadeusz Sroczyński,HUSARII 9,52.170958,21.08509533167387
TM Adam Krasuski,Celulozy 136A,52.17112,21.174400667897764
Tomasz Pątek,ZWOLEŃSKA 16C,52.196458750000005,21.138191298430208
Alina Swoboda vel Swobodzińska,Mydlarska 122,52.21377805,21.14341743761118
WHAT ADAM DESIGN ADAM WODZYŃSKI ,TOMASZA NOCZNICKIEGO 29a/236,52.28478285,20.925362422585145
LESZEK TARAŚ LESTA,CIEPLARNIANA 39,52.24987695,20.870016770853077
BDB Jan Tytz,Okrętowa 3,52.21850175,20.901546595028925
JANUSZ PLISZKA Invest,Wełniana 47P,52.13168625,21.048474090091744
AGNIESZKA ODRZYGOSKA-SZNITOWSKA AGNIESZKA ODRZYGOSKA- SZNITOWSKA-SATAUDIO -SYSTEMY AUDIOWIZUALNE - Nazwa skrócona: SATAUDIO,Pomorska 29,52.331024150000005,20.963696956239893
Kancelaria Radcy Prawnego EDYTA WEROŃSKA,Pełczyńskiego 22b/40,52.24291295,20.90615064188444
"MARTA STAROSIELEC ""FANABERIA""",Karpacka 25,52.2344834,21.15308817919508
JOLANTA MARTYNA SPECJALISTYCZNA PRAKTYKA LEKARSKA,Mehoffera 164P,52.35411135,20.99294761984649
Paweł Kuśmierski - Gabinet Weterynaryjny,pl. Kasztelański 3,52.231394800000004,20.915919142019543
Jelly Innovations Amelia Droździkowska,Międzynarodowa 52/54A/223,52.2361403,21.066406375353843
"TOMASZ LASKOWSKI ""LASKOWSKI""",Wodyńska 17,52.207856050000004,21.185316483387375
PRACOWNIA WARSZAWSKA ALEKSANDRA KUROWSKA,Włókiennicza 25,52.1565557,21.210170688276555
Małgorzata Monwid-Malczewska,GIEWONT 5,52.147028399999996,21.01648566092812
Waldemar Włodarczak,Dworcowa 2,52.20512905,21.171845785793735
SCHUDY STUDIO RENATA SCHUDY,ZODIAKALNA 17,52.21178635,20.911350584612862
USŁUGI TRANSPORTOWE MARIUSZ GAJOWIAK,EUROPEJSKA 93,52.15562665,21.094349884672972
BŁAŻEJ KOTOŃSKI PRZEDSIĘBIORSTWO HANDLOWO-USŁUGOWE,Aluzyjna 20,52.3456878,20.943933512527472
JMF Jakub Fila,al. Aleja Zjednoczenia 3/9/217,52.27822865,20.947477894825944
"Krzysztof WOJCIECHOWSKI MECHANIKA I ELEKTORMECHANIKA SPECJALIZACJA FORD  WOJCIECH HANC, KRZYSZTOF WOJCIECHOWSKI S.C.",Tarnogórska 20,52.27937095,21.074625703782743
MARKETPRO Agnieszka Moskal,pl. Inwalidów  10,52.2651008,20.9904915
GASTROKONCEPT BEATA WODZYŃSKA,Rumiana 72,52.17423005,21.076415987015935
ZOJA Teresa Małaszek-Dąbrowska,Cieślewskich 54,52.33386995,21.02414591225549
ELŻBIETA BRODZIK LOKUM - wspólnik spółki cywilnej,Puławska 597,52.1134651,21.019504051336217
Roman PIENIEK,Arkuszowa 115B,52.284374650000004,20.89328039171889
BARNAŚ CONSULTING MAREK BARNAŚ,Zaściankowa 24,52.168704250000005,21.114664340926893
Tomasz Lipowski ESOTERIC HIFI TOMASZ LIPOWSKI,Trakt Lubelski 379C,52.2239511,21.13914340976479
"ZBIGNIEW ADAMCZYK ""SpeedGlass"" S.C. szyby samochodowe",GÓRCZEWSKA 179,52.24006455,20.93004277864478
"FH. ""ADA"" ANDRZEJ PIENIAK",TWÓRCZA 15,52.315746250000004,21.0421920159921
MARTA KOSOWICZ FLOWCRAFT,WIERZBOWA 5,52.2500718,21.18793877676952
"BEATA KOZIŃSKA Firma Usługowo Handlowa ""MALUTKA"" Beata Kozińska",Czapli 49,52.15011375,21.028922603343737
Kancelaria Radcy Prawnego Michał Czubak,BARCICKA 26,52.2810982,20.95329159381773
MATTHEW LUNT MANAGEMENT CONSULTANCY,Wóycickiego 5D,52.31005695,20.9140069514821
Michał Kubicz Consulting,Białobrzeska 32,52.21489965,20.97515649866793
JFK LEGAL KANCELARIA RADCY PRAWNEGO JAROSŁAW RUSAK,Oriona 6,52.284362349999995,20.894489654359667
Jacek Andrzej Dąbrowski Biuro handlowe,Kłodzka 69,52.165445,21.219301386763895
KANCELARIA RADCY PRAWNEGO ANDRZEJ DĘBIEC,Juranda ze Spychowa 44G,52.31711525,21.04356534971582
"""Sprzedaż Art. Spożywczych i Przemysłowych Wątroba Andrzej"" w spadku",Wołoska/Odyńca -,52.1957584,21.0025088
"KANCELARIA RADCY PRAWNEGO, HN LAW & CONSULTING MARTA SKORUPSKA-RUIZ",Palmowa 8A,52.215724300000005,21.14210005549598
PATRYK WOJCIECHOWSKI,MARGERYTKI 35,52.166065,21.215825710186287
Paweł Cylkowski Global Alpha,Dostatnia 40,52.170954699999996,21.110230507023143
Koncept Mariusz Naborczyk,DĘBINKI 10,52.361044050000004,20.952351041555815
"Firma Usługowo-Handlowa ""Inter Logic"" Andrzej Pocheć",Rogatkowa 34,52.2027655,21.163821499774183
Mirosław Wójcik Mycie Środków Transportu,Naddnieprzańska 33W,52.235916950000004,21.13320443872894
"USŁUGI BIUROWE, AGENT UBEZPIECZENIOWY PIOTR MŁYNARCZYK",Bocheńskiego 27,52.254497549999996,21.165697797852417
GRZEGORZ SERWA AWRES,CZEREMCHOWA 20D,52.3417296,20.96186044387685
"Robert Darkowski  ""DIIL""",al. Aleja Wilanowska 281,52.1762045,21.038494827410698
TOMASZ KOBIAŁKA DAREX,Rosy 23,52.142570649999996,21.12983207292627
Auto Park Okęcie Hasan Gürtekin,al. Aleja Krakowska 42a,52.168503349999995,20.936243755272365
IGOR BOJARSKI IB-Max,PIASTA KOŁODZIEJA 24A,52.310624000000004,21.047411912893317
DARIUSZ MAŁOWIECKI BUDAR,Królowej Marysieńki 96B,52.1762467,21.069983252756725
Serwis okien Kamil Chodźko,Mrozowska 34,52.28019905,21.059454858217684
Edyta Niemyska,Puławska 109B/119,52.1933478,21.025424100426523
ADENT Rafał Kleszczewski,al. Aleja Niepodległości 210/1,52.2175623,21.005707
"Wioletta Waglowska ""SILVA""",Cylichowska 70,52.19773095,21.161737549999998
TECH-TRANSFER  WŁODZIMIERZ OLSZEWSKI,Mazowiecka 58,52.224531049999996,21.237366415600402
JERZY MISIEWICZ DEMICO Jerzy Misiewicz,SŁOWIAŃSKA 10C,52.27681375,20.967009385914366
PRAKTYKA LEKARSKA AGNIESZKA WYPYCH,Owoców Leśnych 8A,52.3149326,21.041213276712917
Alessandro Manfredi BBRN Limited,al. Aleje Jerozolimskie 155,52.220907749999995,20.975883241666665
Patricia Kazadi,Orzechowskiego 13,52.1814217,21.199795302105123
G&G Księgowość i Finanse s.c. GRZEGORZ RZADKIEWICZ wspólnik spółki cywilnej,Malachitowa 28,52.221089649999996,21.224909313244865
ROBERT TARNACKI Kancelaria Radcy Prawnego dr Robert Tarnacki,Zapłocie 28C,52.12851825,21.093428824596774
Magdalena Gołąb-Salach,al. Aleja Wilanowska 43D,52.17159625,21.05830488667993
VIDEO STEREO MICHAŁ SABLIŃSKI,Sztygarów 7,52.182145899999995,21.20691345496881
"GRAŻYNA WIŚNIEWSKA Przedsiębiorstwo Handlowo Usługowe ""GAW""",Życzyńska 6B,52.208178950000004,21.18428789861533
EMIL CZARNOWSKI,Pośrednia 15,52.310230649999994,21.037840748663257
"""ŚWIERCZEWSKI"" Marianna Świerczewska",Chełmżyńska 257,52.272275,21.1174563
FMP BARTOSZ MAJEWSKI,pl. Plac Bernardyński 2,52.194978199999994,21.055626057003252
NAJIB AL-SABAHI,Zadumana 2,52.205051,20.945621340354332
PWS PIOTR SKŁADANEK,Polany 56,52.16583405,21.24922272945561
ŁUKASZ BOCHENEK BS,STULETNIA 3,52.34656235,21.022725319219653
MICHAŁ SUCHECKI VS Studio,Ostródzka 252A,52.3422336,21.048217887529553
WALDEMAR PIĄTOSA,ARTEMIDY 6B,52.248460550000004,20.909697764931522
Dorfed Dorota Fedyna,Jagny 6,52.20434285,20.902431036125865
ADAM ZIELIŃSKI,Hanki Ordonówny 19G/135,52.33272995,20.951508261591876
ARRO Arkadiusz Tkacz,Zwoleńska 77,52.202247650000004,21.151944850571503
"GRAŻYNA KRĘCISZ BIURO RACHUNKOWE ""PLUS""",Zdziarska 22A,52.340219399999995,21.039047071791444
Kancelaria Radcy Prawnego Wojciech Bobik,Bacha 34/507,52.172036399999996,21.021563117920877
WM Maciej Wojtaszko,Nowoursynowska 117G,52.144974399999995,21.066611889779587
BARTCEL SERWIS Bartłomiej Łaciak,ESTRADY 70A,52.29634605,20.879667406209244
AXEL ARKADIUSZ ROZMUS,Osuchowska 10,52.3326562,20.95673300150031
BORETTI Elżbieta Boretti-Kowalska,Rzymska 10,52.2230062,21.064245806365065
"""PIOTRUŚ""  MARIUSZ POPIEL-ANTAS WSPÓLNIK SPÓŁKI CYWILNEJ",Michałowicza 78,52.1905336,20.88052933492647
Special Garage Aneta Dąbrowa,Izbicka 172,52.1785889,21.2337873
""" M & M UBEZPIECZENIA "" MARCIN GOŁAWSKI",Roty 51,52.2657734,21.160424159155426
ONE TREND KAROLINA KOWALEWSKA,Białołęcka 365,52.3256735,21.03153207622941
KAROLINA GNAŚ NOME - Karolina Gnaś,KRUSZYŃSKA 20,52.231587399999995,20.918247548705338
MARCIN BERNAT MOTO-CYKLE,Ojcowska 6,52.18105435,21.071325454060815
GRZEGORZ TOMALA TAXI OSOBOWA,Wiązana 10a,52.20114565,21.143592384429205
Wine & Spirits Pająk Sławomir,Warszawa 71,52.160084049999995,20.93727802885765
"KRZYSZTOF SZTANDERA "" PROFIL """,ZDZIARSKA 17,52.34042425,21.037987222735943
"Marek Karczewski ""Autorest"" MAREK KARCZEWSKI",Trakt Brzeski 70,52.22251255,21.23855136844748
KANCELARIA RADCY PRAWNEGO ANDRZEJ SOKOŁOWSKI,Wiśniowy Sad 12,52.3131896,21.02525072282711
START 2 Krzysztof Otrębski,al. Aleja Dzieci Polskich 54,52.2088032,21.201821418029915
Office Management Aleksandra Księżopolska,Radomszczańska 9a,52.2061714,21.1617486566982
ANNA KACZKOWSKA-ŚMIGIERA Anna Kaczkowska-Śmigiera,Pogonowskiego 15,52.2653874,20.987412607208157
AIR Robert Bieliński - Wspólnik spółki cywilnej; Robert Bieliński,Promienna 3,52.27695285,21.068525533220722
"Anna Dobrowolska GRUPA FILMOWA ""REKONTRPLAN"" - ANNA DOBROWOLSKA",Filmowa 44,52.159861199999995,21.21926019555699
"Wiesław Kulig SYLEN S..C. Jan Binda,Wiesław Kulig Usługi Rem-Budowlane,Nadzór Budowlany",Bolecha 53,52.2475919,20.94423729578562
Karina Nożykowska Szkolenia i Wsparcie Sprzedaży,Motylkowa 57a,52.20003105,21.151486298052568
ŁUKASZ SZOCH,al. Prymasa Tysiąclecia 81A/13,52.223408199999994,20.95556841032618
"PPHU ""DORMAX"" DOROTA PAWŁOWSKA",KLUKOWSKA 1,52.2703012,21.0851233933358
"Tadeusz Rymsza PRZEDSIĘBIORSTWO PRODUKCYJNO-HANDLOWE ""MOANA"" S.C.",Skrzyneckiego 35,52.2270877,21.15699043948809
DELIKATESY DOMINIK WOJCIECHOWSKI GRZEGORZ,Zarankiewicza 2,52.182081499999995,20.974277917581823
CLEARWEB - ŁUKASZ SOKOŁOWSKI ,WIELKIEGO DĘBU 19a,52.307863749999996,21.035429972749366
ANNA PĘSKA-FORMELA wspólnik spółki cywilnej,Pilicka 48,52.194775050000004,21.01877895976601
MBS MAGDALENA KONDRATOWICZ,Sycowska 13,52.1794223,20.943232
DORADZTWO PRAWNE DOROTA BRZOSKO,BORKOWSKA 20E,52.21735395,21.219456547619046
KKN Karol Banaś,LEBIODOWA 27B,52.20779965,21.13992550588
BOGDAN DOLIŃSKI SPED-ELMAT,KOLEJOWA 15/17,52.224834,20.97379962192219
Stefan Kapica,NAD WILANÓWKĄ 1,52.16554385,21.108537573739007
KAROlinia KAROLINA CZAJKA,Bażancia 47A,52.10817675,21.023350379615984
Henryk Maciej Sikorski RESTAURACJA PANORAMIX,Chruściela 8,52.25789455,21.160192707391424
Karol Witkowski,STANISŁAWA STASZICA 19A,52.23897835,21.217011549026942
JAROSŁAW FUDAŁA MANDO,Przekorna 65F,52.12607595,21.101701281707456
Jakob Szucsich,Dostępna 50,52.26003015,20.903024530099977
ADAM PERL GEMiNi 5 Adam Perl,Jeziorowa 67C,52.198677,21.127626418453907
BABEL STUDIO AGNIESZKA DREWNO,Markietanki 15,52.25894085,21.174312441916584
MAŁGORZATA MATERZYŃSKA OWOCE WARZYWA KWIATY,Plac Politechniki 1,52.2216394,21.00737979000361
L.A. CONCEPT Aleksandra Lubicz,al. Niepodległości 67/251,52.18979935,21.015893919732004
NO PROBLEMO PUBLISHING ADAM ROMANOWSKI,Dworkowa 20,52.2195667,21.247114947501665
MICHAŁ STELMASZAK,WÓLCZYŃSKA 303J,52.2978467,20.885295804006773
KALAREPKA MONIKA BURLIŃSKA,ul. Dobra 18/20,52.2376673,21.0293206
"Przedsiębiorstwo Reklamowo-Usługowe ""NAJ"" Paweł Lech",al. Aleja Dzieci Polskich 68C,52.20864845,21.205374794603774
"JAROSŁAW BINIECKI ""DIRECT PRINT""",CONRADA 30,52.2800141,20.9236192
ITCON ADAM KWIATEK,BOROWIECKA 55L,52.184078799999995,21.154180235537368
ANTYKI I RENOWACJA MEBLI JAROSŁAW KOSOWSKI,Aleja Komandosów 29,52.2532013,21.167524428533987
CARSET MACIEJ KOZERSKI,Turkusowa 48,52.2209074,21.22407060302659
SEBASTIAN WYRZYKOWSKI BASMA,ISKRY 2,52.25022145,20.876090982159816
WarsawINK TOMASZ ŁUKASZEWSKI,DZIERZBY 3A,52.1340428,21.023702590555555
Andrzej Kober,Paryska 6,52.22643265,21.059903270119705
GABINET LEKARSKI  ORTOPEDIA-TRAUMATOLOGIA WOJCIECH ZBIEWSKI,Fantazyjna 58,52.2784665,21.06398894629059
"""ANGELINA"" STEFAN SIKORSKI",Turkusowa 22,52.22183355,21.224025640370517
"IZABELA ŁAGOWSKA FIRMA ""BUDOTEX"" - PRZEDSIĘBIORSTWOPRODUKCYJNO-HANDLOWO-USŁUGOWE",AL.KRAKOWSKA 16B,52.16469145,20.93344299117993
Piekarnia KROMKA Joanna Olejniczak,Ananasowa 33/U5,52.2086583,21.0670068
FLYCODE PAWEŁ FLIS,TELEWIZYJNA 2,52.2655517,20.906587117251647
"HAPPY GO LUCKY Justyna Wroniak-Lodkowska, Mateusz Stawecki Spółka Cywilna - Wspólnik Spółki Cywilnej",Wełniana 27H,52.13065585,21.052155254758887
USŁUGI MEDYCZNE Janusz Zdrojowy,Prętowa 6,52.142700250000004,21.144575300079985
Warszawski Instytut Ekonomiczny Wanda Pełka,ul. Nowy Świat 49/312,52.235589,21.0185526
ROBERT J. KOS KORDIAN GROUP POLAND,Andrzeja Krzyckiego 6,52.21845615,20.99031478483068
ORTOMEDA AGATA PIĘTAK,Panny Wodnej 37A,52.1844043,21.184708145422213
MICHAŁ PIOTROWSKI AM Guard,JAGNY 3,52.204162800000006,20.901803464580453
"Tourism, Service, Insurance Aleksander Szostak",Prasowa 26,52.1658501,21.200944892105266
ASTE Krzysztof Staszewski,DROHOBYCKA 4,52.182812049999995,21.22870738297869
USŁUGI LEKARSKIE STEFAN BATOWSKI,Sobierajska 16,52.191042100000004,21.191059196497925
ITBOLT Aleksander Niemoczyński,Stylowa 15,52.22141575,21.14440277476388
A.M. INVEST ARKADIUSZ MICHALSKI,Królewicza Jakuba 83a,52.17614055,21.070940944693803
Piotr Stachowicz Consulting,Brodnicka 25,52.1666491,21.20131338716069
Beata Karczewska - Usługi Fryzjersko-Kosmetyczne,al. Komandosów 22,52.25299315,21.166986597983943
WOJCIECH GODLEWSKI SKLEP OGÓLNOSPOŻYWCZY,ZAMIEJSKA 24,52.275323900000004,21.063107619703395
HENRYK RYTWIŃSKI RE DORADZTWO,OSTRÓDZKA 240C,52.34203095,21.04881867430351
Creative Images Kamil Grzelak,STANISŁAWA LESZCZYŃSKIEGO 17C,52.2033371,20.85853770953357
PIOTR ZAJĄCZKOWSKI,ŚRÓDBOROWSKA 4,52.17967835,21.200928295984454
SKLEP PRZEMYSŁOWY - POPRAWKI KRAWIECKIE GRAŻYNA SĘDKOWSKA,Pancera 17,52.320854749999995,20.942810439218984
Karolina Krawczyk CROSS CULTURE USŁUGI JĘZYKOWE,Lokalna 29,52.168244099999995,21.21029260778679
JUKRA Juha Laine,Zaciszańska 25,52.291257400000006,21.056265478511712
Krzysztof Tworek,Wiktorii kaweckiej 10,52.3309026,20.991294055052393
MAŁGORZATA BIELECKA,TARGOWA/ZĄBKOWSKA .,52.2520337,21.0382126
ZOMA MARTA PIENIĄŻEK,Czołowa 40R,52.33542185,20.99204799426747
SYLWIA LATEK,OLĘDERSKA 10B,52.155187749999996,21.132643891332584
"Artur Legięć HOMECARE-DOMINAT nieruchomości - wynajem, zarządzanie i administrowanie",al. Aleja Krakowska 291A,52.196567200000004,20.961832855002246
ALEKSANDRA CZERNIAWSKA-MROCZEK PSYCHOLOG PSYCHOTERAPEUTA,KĄKOLOWA 20E,52.17543785,21.201942488336538
DARIUSZ FRĄCKIEWICZ DARPOL,KARABELI 3A,52.22888145,20.899799936648005
Soft-AG AGNIESZKA GRODZKA,JESIENNYCH LIŚCI 9/A,52.310560699999996,21.05806033920742
Tomasz Mizera,Zamieniecka 71,52.240484550000005,21.100694251094748
Agata Binienda - wspólnik spółki cywilnej,Rembielińska 7A,52.2857436,21.032134449999994
AMEST Dariusz Chorąży,Prawdziwka 16B,52.103688649999995,21.0875775384026
HAUER - Tomasz Hałasz,Sabały 58,52.1861838,20.956294036894555
PT COMPUTERS PIOTR TRACZYŃSKI,WŁODARZEWSKA 58,52.202438,20.95565108589399
ZBIGNIEW PIWOWAREK MAGNAT POLAND,DZIECI WARSZAWY 48,52.1968038,20.895452893870694
Jerzy Kosiński ELEKTRONICZNE SYSTEMY ALARMOWE,Nadrzeczna 14,52.2138741,21.073456148517437
Indywidualna Praktyka Lekarska Katarzyna Plewka-Barcik,PANORAMY 50,52.189605549999996,21.126245599436828
Iza Żeleźnicka,Wóycickiego 14,52.29928495,20.90304282991752
"""K&K MARIUSZ KUŹMA BEATA JAGODZIŃSKA-KUŹMA spółka cywilna""",Bolesława Krzywoustego 40a,52.2002191,20.8582024368697
PANDA PRODUCTION BARTOSZ BIAŁOBRZESKI,Zgierska 18C,52.23922085,21.090978125893393
"""Eko Pewne Ciepło"" Mieczysław Bajszczak",Kobiałka 57K,52.3629966,21.04835119165154
Let's Roll Michał Goździewski,Armii Krajowej 43,52.250515,21.22736018785608
"SKLEP "" NA ZAWODOWEJ "" DARIUSZ OLSZEWSKI",Zawodowa 2A,52.26352635000001,21.15763676560308
Home Guards Zygmunt Woś,al. Aleja Prymasa Tysiąclecia 48A,52.22434645,20.959228057767618
STORK SERVICE TOMASZ SZUMERT,Paderewskiego 150,52.273074699999995,21.14868745552686
MACON Andrzej Maciejewski,FLAMENCO 13A,52.142270100000005,21.00892861064532
"Ryszard Ratajczyk ""AUTO-WILANÓW""",Biedronki 73,52.1754742,21.083757765044815
Główka Pracuje - Piotr Główka,ul. Ratuszowa 11/431,52.2574866,21.0305293
STEFAN WIETOSZKO TAXI OSOBOWE,LEWICPOLSKA 13,52.2905157,21.07353439134615
JAN IZDEBSKI MAXIM-SERWIS,Kazimierza Pużaka 4,52.1904014,20.890410154068086
Tomasz Szleszyński PIĄTKA,Bakaliowa 4,52.23742445,21.12684942121131
Vitulus Łukasz Goryszewski,pl. Plac Jana Henryka Dąbrowskiego 1,52.2366092,21.0098556
ADAM OSKĘDRA,OGÓRKOWA 63K,52.1613745,21.15981831435017
Paulina Czeredys,DARNIOWA 17B/-,52.216447900000006,21.135644089906407
DCZ KAMIL OLEJNIKOWSKI,WILANOWSKA 50,52.2435459,21.187883626310622
KAMILA POMIANOWSKA,CHOCIMSKA 8/10,52.208713849999995,21.02396165410007
KNUT HOFFMANN,DENAROWA 21,52.202408000000005,20.918597621122103
Instalatorstwo Gazowe Naprawa Urządzeń Gazowych Jerzy Pytlak,CYPRYSOWA 25,52.180114599999996,20.94354143410943
"Robert Przybył PRZEDSIĘBIORSTWO WIELOBRANŻOWE ""KONWAR""",Tytoniowa 22,52.2360415,21.131205590697633
BOGUSŁAW MORZY,WILANOWSKA 16/20a/40,52.22989685,21.037226165159574
""" Zieleziński "" Patryk Zieleziński-Nowak",Józefa Szymańskiego 15A,52.247165100000004,21.13095407454813
"MARIOLA JĘDRASIAK "" JOVIAL S.C. """,JEROZOLIMSKIE 202,52.19351105,20.922391980150003
"NEW SELLING WAY-JACEK CZYNAJTIS, nazwa skrócona: NEW SELLING WAY",Wita Stwosza 18,52.17551615,21.019378792098216
"BIURO RACHUNKOWE JIN IZABELA ZAWADZKA, nazwa skrócona: BIURO RACHUNKOWE JIN",Nowoursynowska 145C/121,52.1523875,21.057805731589177
Doradztwo Artur Zdanowski,Roentgena 43F,52.1431922,21.027112619454748
"""ALTECH"" Piotr Typiński",Hołubcowa 45a,52.135749450000006,20.994139147860665
EuroCorp Joanna Jarocka,Juranda ze Spychowa 43,52.3178515,21.041932713296383
Janusz Stanowski DRUKARNIA CIS,Modrzykowa 8,52.20150825,21.165503435102412
"""BARBARA"" Barbara Rudnicka",Raniuszka 41,52.1316378,21.02001057574627
JANUSZ SARNECKI  TENTEGO,TRUSKOLASKA 1,52.17600565,21.207267518946832
Leonart Szanajca-Kossakowski Kancelaria Adwokacka,Mrówcza 3A,52.184699949999995,21.17499489760834
KROPKA STUDIO WOJCIECH GĘBALA,Paderewskiego 144D/107,52.2730507,21.1515392
Indywidualna Specjalistyczna Praktyka Lekarska Magdalena Derejska,al. Bohaterów Września 22/242,52.21492015,20.961222199884965
ANNA RUDNIK AN-BUD,Bandurskiego 6C,52.19882685,20.896625360334006
TADEUSZ GAJEWSKI ENERGY CONSULT,Przepiórki 59,52.203790350000006,20.89775594648819
"Andrzej Kaniewski AGENCJA DZIENNIKARSKA ""SCRIBO""",Wandy 16/5,52.2313825,21.0576148
KANCELARIA PRAWNA ANDRZEJ KUNICKI,ul. Sienna 86/107,52.2313779,20.9986979
GLEX Jakub Rembiewski,Inspektowa 15,52.1861852,21.033006679050207
Cooperante Karol Kowalczyk,Henryka Łasaka 69H,52.22024105,21.105969509293875
VIKTOR ARDERIKHIN ZAAR,Jesienna 41,52.1978838,20.86149507866493
InBloom Paulina Łubińska,HERY 25b/102,52.25136475,20.908539318000415
WITKA PROJEKT KATARZYNA NĘGA-WITULSKA,PERZOWA 33,52.21746335,21.20174083431842
KOBI Social Media Karolina Wojtasz,MIĘDZYRZECZE 21D,52.362493900000004,21.044238945105693
MAŁGORZATA CIEŚLAK-BELGY ADVISORY SERVICES,kOŁOBRZESKA 17,52.180028899999996,21.06969155277875
"WYDAWNICTWO MUZYCZNE FOLK SPÓŁKA CYWILNA ROBERT DOROSZ, ANDRZEJ KOWALSKI",Narocz 19,52.17151075,21.013000200426138
Sławomir Graliński MSG - CONSULTING,Sobierajska 3A,52.18834785,21.19028069486241
Grzegorz Chrabałowski,Łamana 3C,52.2035753,20.91386034177479
DRF Adam Królik,Okrężna 33,52.18422465,21.071325611505436
"BENEDYKTA ŁAPIŃSKA ""ECHO""",Picassa 2,52.313541799999996,20.95569722009669
AUTO ZAWADZKI RAFAŁ ZAWADZKI,KALAMBUR 33,52.2937261,20.900168021086365
ABC FINANCES USŁUGI KSIĘGOWO-PODATKOWE GRAŻYNA MARCZEWSKA,Dębowa 1D,52.3617411,20.94279929275566
MIROSŁAW KAMIŃSKI,FILOMATÓW 53,52.2391408,21.094563441509965
db Biuro Rachunkowe Dorota Garlińska; db Organizacja Imprez Rozrywkowych Dorota Garlińska,Raszyńska 15,52.2185593,20.9892451
HT Dominic Buczkowski-Wojtaszek,al. Aleja Dzieci Polskich 56a,52.20796285,21.202684209766854
Lidia Kostecka TELIDA Zakład Usługowo-Produkcyjny,Roty 71,52.2669869,21.164101002666417
Disign Karol Andrzejewski,OSTRÓDZKA 130,52.31955755,21.05012244345192
Interstage Michał Pietrzyk,Kingi 6,52.291626949999994,21.062208474176778
MAŁGORZATA LECHNA-PIOTROWSKA KANCELARIA PRAWNA,MENDELEJEWA 21,52.2571818,20.89118431321101
ANDRZEJ KISTELSKI ANDY - Andrzej Kistelski,ul. Nowiniarska 8/40,52.2506371,21.0049814
Anna Atłas EFFINGO,Chorzelska 16,52.159386299999994,21.218710609474265
G-Trans Grażyna Wrzosek,Łyszkiewicza 2a,52.2542134,21.165666935094343
Hanna Zajęcka Trade,GAWOTA 20G,52.138291100000004,21.006679573623444
Spire Clinic laser&beauty Magdalena Domel,Siedmiogrodzka 1/u13,52.2318663,20.9773171
Krzysztof Karasiński Auto Karaś,Płońska 13a,52.28314895,21.076360668305583
JADWIGA MOGILNICKA PLEOFASHION,BORZĘCIŃSKA 11,52.2486892,20.87886933729522
IT RESEARCH DARIUSZ MALACKI,Kadetów 23,52.2136852,21.112945959182127
Tomasz Nowak AUTO-SERWIS ELEKTROMECHANIKA POJAZDOWA,Błękitna 89A,52.22579365,21.143079389682228
ANNA WIERZCHOWSKA wspólnik spółki cywilnej FORUM sc,ul. Chłodna 22,52.2375526,20.9895612
BARBARA KUCHARCZYK,Fantazyjna 36,52.27706325,21.06381337712356
"IZABELA KORABIEWSKA Centrum Edukacji Kosmetologicznej I.Korabiewska, E. Pieciuk spółka cywilna, Izabela Korabiewska- wspólnik spółki cywilnej",Okopowa 55A,52.24836835,20.97676482744548
BIURO PODATKARNIA MAŁGORZATA GRYDZIUSZKO,Klubowa 24,52.1257574,21.013223625451865
MC PROJECT KRZYSZTOF CHOJNACKI,POMIECHOWSKA 28A,52.2110584,21.15509584282526
CLOUD MINDED MACIEJ KROGULEC,ZASADOWA 53A,52.17423745,21.177404102045806
PAWEŁ KORNACKI KOR-TEC,Koryncka 36b,52.218731250000005,21.146555989035086
"EWA WANKE Gabinet Kosmetyczny ""MIMI""",Abrahama 4A,52.2273491,21.085970821092765
"WebSafeWay
Agnieszka Parobczy",Aluzyjna 33E/108,52.3483897,20.9404353139424
Dariusz Nowikowski,Lebiodowa 27F,52.20878105,21.139455400444664
USŁUGI HYDRAULICZNE MAREK KRECZMAŃSKI,Godebskiego 27,52.18819645,21.065999057864865
KRYSTYNA JANISZEWSKA TRENT VALLEY,DUNIKOWSKIEGO 35,52.1520867,21.024750510886108
Studio PROA Michał Wyrzykowski,Mirtowa 24,52.20774285,21.152500589362127
Jakub Wątły  Kancelaria Doradców Medialnych Xtra FM - wspólnik spółki cywilnej,Korkowa 39,52.23645865,21.13507466048244
Krzysztof Wachnik,Prasowa 38A,52.16603925,21.202506825240867
Loretta Stechliczek Lorcia,Tołstoja 1,52.284638900000004,20.931546285622797
Kancelaria Adwokacka Adwokat Andrzej Pałys,Jeziorowa 48/5,52.1955887,21.127667195492734
Krzysztof Jaguścik Ciekawaherbata.pl,al. Aleja Bzów 15,52.1845186,20.88718023330466
Barbara Boda-Leśniak,ZASOBNA 58,52.183409999999995,21.18788487740634
KAROL SZYDLIK,ESTRADY 59A,52.3006133,20.880937849574465
PAWEŁ ANUSIEWICZ,LIDZBARSKA 34,52.355629050000005,20.98750565104566
TKZ Bartosz Laskowski,Potułkały 14,52.1197825,21.096341810460277
Paweł GLIWA PJG Entertainment Paweł Gliwa,Michaliny 14,52.30690305,20.91985069253826
"ARTUR STAŃCZYK 1.ESKOM Artur Stańczyk, Anna Stańczyk s.c. 2.""ESKOM"" Artur Stańczyk",TAPICERSKA 16A,52.18645155,20.96115171851317
ProSmoker Jarosław Szulc,Korkowa 167/204,52.241983700000006,21.16233099554224
Janusz Nowakowski - NOWATOR,Klaudyny 30D,52.28388675,20.972003992292606
"HALINA BUKOWSKA ""EROZJA""",Przyczółkowa 134,52.13209355,21.10156487772166
Lubalife MUHAMMED ARSLAN,Janiszowska 8,52.180567800000006,20.94600162321115
ADWOKAT JAKUB WALAWSKI KANCELARIA ADWOKACKA,JANA KAZIMIERZA 53/240,52.221254200000004,20.9337004097096
AGNIESZKA BUZA ART - FLORA Agnieszka Buza,OŚWIATOWA 1,52.229740250000006,20.919125526012728
PIOTR KIEWEL CC NET,Książkowa 50E,52.3278954,20.948275639149784
FLYBY JULITA SASIM WSPÓLNIK SPÓŁKI CYWILNEJ,Ryżowa 49,52.1854083,20.905232907695677
EWA MINKOWSKA CENTRUM DERMATOLOGICZNE,STANISŁAWA ROSTWOROWSKIEGO 30,52.2626765,20.925132466096663
"Jerzy Mydłowski ""MIX-CAR""",Zwoleńska 92H/2,52.19976195,21.156230644072163
HOOFLAND  -  MARTYNA KOZAKIEWICZ,ANTONIEGO BOHDZIEWICZA 11,52.28038345,20.968834185955785
"SPECJALISTYCZNA PRAKTYKA LEKARSKA Michał Orczykowski, UMBRIA MICHAŁ ORCZYKOWSKI WSPÓLNIK SPÓŁKI CYWILNEJ",Trakt Lubelski 239N,52.20666945000001,21.12989460950923
Katarzyna Wasilewska,Wspólna 49,52.24837655,21.193573022121864
Kinky Needle Monika Ślęczek,Mokotowska 7/7,52.2178154,21.0163137
Marek Bury,Przyczółkowa 124,52.131388400000006,21.102169821721695
Media Soul Ewa Napora,Poprawna 166S,52.224854,21.11558336689238
TWITTER NETWORKS PAWEŁ SAŁKIEWICZ,Wilgi 83A,52.185802249999995,21.21392928524557
STOLART WŁODZIMIERZ ŻYCHLIŃSKI,PODOLSKA 26,52.243767399999996,21.115134866092518
Ecofasada Pro Waldemar Flis,Fletniowa 48b,52.3444801,20.977327567225025
Dziewczyna z kwiatami RENATA KRÓLAK,"al. Aleja gen. Antoniego Chruściela ""Montera"" 9",52.258082099999996,21.15948419135593
TopCannabi Mateusz Smolicki- wspólnik spółki cywilnej,Dwóch Mieczy 52,52.25019235,21.170761001209925
EKO-VITA PIOTR BYŚKINIEWICZ,Podbiałowa 1,52.1645703,21.165979965869745
GROTTE ART BARTŁOMIEJ GROTTE,Miączyńska 17,52.19233045,20.99805652177583
IWONA KACZMAREK WSPÓLNIK SPÓŁKI CYWILNEJ KACZMAREK STUDIO,Drzemlika 1G,52.12121715,21.021663146908814
Sylwester Martko,al. Wyścigowa 8B/106,52.16632385,21.012726598698038
AUTO SERWIS JACEK MIANOWSKI,Chełmżyńska 10G,52.24439215,21.135456808222948
LESZEK SZYPERSKI ZAKŁAD REMONTOWO-BUDOWLANY,Baletowa 23A,52.12316515,21.00820240641434
MAREK LEMAŃCZYK TAKSÓWKA OSOBOWA,Nowodworska 16E,52.32220905,20.94026696138613
"""ARMADA"" WALDEMAR WOJEWÓDZKI",Dziewosłęby 28,52.2591937,21.16757102988349
"""LUDWIK FILIP"" Jerzy Kalinowski",Olbrachta Jana 6,52.23844135,20.94255352872902
"TOMASZ CHOMIAK ""MAXEC S.C.""",Radarowa 36,52.18807495,20.962833682847645
Evolutio Karolina Kulesza,ul. Chocimska 35/101,52.2111156,21.0229189
Praktyka Lekarska Lek. Anita Hamela-Olkowska,Lucerny 8,52.21385995,21.142303996084788
USŁUGI GRAWERSKIE MAGDALENA SZCZEPANIAK,Ruchliwa 20,52.1750719,20.946548332671235
O.K.F. ELIZA POPRAWA,Krośniewicka 2B,52.2807964,21.06261331899891
MIKO LOGISTIC PIOTR STACHURSKI,GEN. WŁADYSŁAWA SIKORSKIEGO 103,52.2517245,21.25049868432453
"""AKONTO"" BIURO RACHUNKOWE s.c. ANTONINA KRUSZEWSKA wspólnik spółki cywilnej",Adampolska 3,52.23856115,21.0567527889757
MICHAŁ ŁOJEK BUSINESS DEVELOPMENT,WŁODARZEWSKA 87B/104,52.2020118,20.948304617029358
Haparts Michał Dziadowiec,Goraszewska 5,52.18879785,21.070137138116156
JD Consulting - Joanna Długosz,FABIAŃSKA 13,52.25141465,20.87449995050592
INGVARR MICHAŁ ŁĘCZYŃSKI,Motylkowa 3N/2,52.19615845,21.14745856635202
Andrzej Waltz Projekty - Konsultacje - Oprogramowanie,Kożuchowska 2A,52.2033158,21.171300928719276
IRENA DYMKOWSKA,Rechniewskiego 2,52.224856149999994,21.103217363079345
AGENT UBEZPIECZENIOWY BEATA PURZYCKA,KRASNOBRODZKA 19A/130,52.30080885,21.04741133873886
"BOGDAN CIOŁKOWSKI Bogdan Ciołkowski wspólnik spółki cywilnej ""CIOŁKOWSCY"" PRACOWNIA BIŻUTERII ARTYSTYCZNEJ I BURSZTYNU",Klimatyczna 31,52.189078699999996,21.17980495022153
"ZDZISŁAW JANUKOWICZ, BONITEX s.c.",Borków 53,52.19145625,21.15223022084897
MAREK GOŁOWCZYŃSKI GRAWMARK,SZCZERA 22D,52.202110399999995,20.910650517130918
KATARZYNA GOŹDZIK-OSTASZEWSKA,Cegielniana 8,52.20839975,20.925156429154878
MARK JURKEVICH - PPHU,Cyrhli 8,52.1490143,21.015853508384005
LAKIERNIA PROSZKOWA s.c. Andrzej Roguski Wiesław Roguski,Estrady 56,52.293012000000004,20.87860852245509
PO PROSTU KAROLINA KIDAWA,TRAKT LUBELSKI 360H,52.22006905,21.137589332588455
MANGALA ANDRZEJ NIEDZIELA,Pachnąca 5,52.1461152,21.06526927278923
"PRZEDSIĘBIORSTWO ZAOPATRZENIA PRZEMYSŁU POLIGRAFICZNEGO ""REPROGRAF JOLANTA KUROWIAK"", PRIMADENT s.c. Iwona Cierplikowska Jolanta Kurowiak Mariusz Pelikan",Wolska 88,52.2321362,20.958524836768873
FOGIEL AUTO SERVICE WOJCIECH FOGIEL,Mlądzka 17,52.239658250000005,21.09800699935715
"Przedsiębiorstwo Handlowo-Usługowe :Leksus"" Karol Kościuk - wspólnik spółki cywilnej",Kazimierzowska 64,52.20640425,21.013712767022984
ELMOKO MICHAŁ ADASZEWSKI AGENCJA KREATYWNA,JAWOROWSKA 6,52.1945068,21.034800106336778
"CEZARY PARNIEWICZ ""TEXMA""",Wągrowiecka 11,52.1819845,21.180877812015186
MIĘDZYNARODOWY TRANSPORT DROGOWY MARIUSZ PAPIS,RADZYMIŃSKA 259,52.28883045,21.07627247505146
"""RABAT"" RENATA FRĄC",Grochowska 121/125,52.24185765,21.10330320349052
"MARCIN WIŚNIEWSKI BLACHMET; Marcin Wiśniewski - wspólnik spółek cywilnych Blachmet, Blachmet Laser, Centrum Laserowe",Liwska 15,52.290503900000004,21.016201052749047
Katarzyna Hendigery-Małczyńska Kancelaria Prawna,ul. Polna 50/115,52.2166868,21.0172273
Grzegorz Łaszek Consulting,AGRARNA 10,52.25093545,21.12536420178452
"INTERNET ART S.C. KARINA OZIMEK-LITWIN, JACEK LITWIN",SIEDMIOGRODZKA 20,52.231707,20.96972604380829
MLODYGRABUS.PL BARTOSZ GRABOWSKI,Wiązana 63B,52.20560265,21.13967911642857
"ALINA LEWANDOWSKA ""ELEGANTKA"" WSPÓLNIK SPÓŁKI CYWILNEJ",Abrahama 7,52.22870475,21.090660470716735
MAGDALENA SUSKIEWICZ,SZAFIROWA 42,52.169082700000004,21.19673736600231
PRZEDSIĘBIORSTWO BUDOWLANO-INSTALACYJNE BIS ARPIS TOMASZ KRZYSZTOF REK,ppłk. Zbigniewa Stanisława Kiedacza 32E,52.1592986,21.056329999112908
Piotr Kołakowski,Huculska 6,52.2013938,21.028332912312063
AUTO-HANDEL GRZEGORZ KOCZDAŃSKI,Modlińska 229,52.3292092,20.965558458019537
WOJCIECH ŚWITA PRZEDSIĘBIORSTWO HANDLOWO USŁUGOWE TWS,Czereśniowa 20A,52.198678400000006,20.927328804292774
FANCY AGENCY ALEKSANDRA FURMANEK-GĄSKA,WŁADYSŁAWA REYMONTA 12,52.2440152,21.228318240173422
"MICHAŁ WACHOWICZ ""WAMIX """,MICHAŁOWICZA 81A,52.191753649999995,20.879950594180755
FLOKI - MACIEJ BEREZOWSKI,"BOHATERÓW Z KOPALNI ""WUJEK"" 15",52.24332425,21.182599395243702
"""PROARTIS MARCIN JANICKI""",DZIECI WARSZAWY 49A,52.1973561,20.892007370143
Maciej Kurzajewski MEDIA ACTION,Dalii 2,52.212062450000005,21.24200844373894
MARCIN PAŚNIK,POWSZECHNA 26A,52.2295924,21.147704653195717
"Katarzyna Welman ""PANTA REI...""",Zwoleńska 64B,52.20017135,21.148802342467533
Tagmata Stanisław Seliga,miłobędzka 20,52.19601265,20.99277406376155
MAREK KUŻEL,Stradomska 46,52.2211442,21.15944938411836
MARIA KULIK KWM SYSTEM,Przekorna 38,52.12307665,21.098919683800837
USŁUGI PSYCHOLOGICZNE MILENA GRACKA-TOMASZEWSKA,Prawnicza 92A,52.1937131,20.881454035714285
EMERMED-GRZEGORZ ERNEST KACZMARSKI,KRYSZTAŁOWA 33A,52.231584,20.90770835659495
MCH Usługi Lotnicze Tomasz Michalski,Kądziołeczki 52A,52.1447946,21.000779950000002
Grzegorz Maksymienko,Zapomniana 3a,52.155257649999996,21.20408891743235
Mariusz Rutkowski P.H. MARBO,Przyjaźni 79,52.2340076,21.156128123860473
Mikołaj Danko MIKOŁAJ DANKO PRAKTYKA LEKARSKA,Protazego 35,52.2862449,21.060170624872775
Marcin Snopkowski SNOPKOWSKI CONSULTING GROUP - MARCIN SNOPKOWSKI,Wichrowa 7J,52.21929345,21.140740578319658
"Gabinet Weterynaryjny ""Nasze zwierzaki"" Jarosław Zajączkowski",Berezyńska 31,52.236904,21.054215551912506
"A) ŻURKON - Stanisław Korniluk, B) ŻURKON Wspólnik Spólki Cywilnej - Stanisław Korniluk",Poprawna 41D,52.21267585,21.112439660953655
